id,name,state_id,state_code,state_name,country_id,country_code,country_name,latitude,longitude,wikiDataId
52,Ashkāsham,3901,BDS,Badakhshan,1,AF,Afghanistan,36.68333000,71.53333000,Q4805192
68,Fayzabad,3901,BDS,Badakhshan,1,AF,Afghanistan,37.11664000,70.58002000,Q156558
78,Jurm,3901,BDS,Badakhshan,1,AF,Afghanistan,36.86477000,70.83421000,Q10308323
84,Khandūd,3901,BDS,Badakhshan,1,AF,Afghanistan,36.95127000,72.31800000,Q3290334
115,Rāghistān,3901,BDS,Badakhshan,1,AF,Afghanistan,37.66079000,70.67346000,Q2670909
131,Wākhān,3901,BDS,Badakhshan,1,AF,Afghanistan,37.05710000,73.34928000,Q2509959
72,Ghormach,3871,BDG,Badghis,1,AF,Afghanistan,35.73062000,63.78264000,Q5556982
108,Qala i Naw,3871,BDG,Badghis,1,AF,Afghanistan,34.98735000,63.12891000,Q26396
54,Baghlān,3875,BGL,Baghlan,1,AF,Afghanistan,36.13068000,68.70829000,Q732879
140,Ḩukūmatī Dahanah-ye Ghōrī,3875,BGL,Baghlan,1,AF,Afghanistan,35.90617000,68.48869000,Q5194960
101,Nahrīn,3875,BGL,Baghlan,1,AF,Afghanistan,36.06490000,69.13343000,Q6959392
105,Pul-e Khumrī,3875,BGL,Baghlan,1,AF,Afghanistan,35.94458000,68.71512000,Q477148
55,Balkh,3884,BAL,Balkh,1,AF,Afghanistan,36.75635000,66.89720000,Q182159
65,Dowlatābād,3884,BAL,Balkh,1,AF,Afghanistan,36.98821000,66.82069000,Q2163607
85,Khulm,3884,BAL,Balkh,1,AF,Afghanistan,36.69736000,67.69826000,Q1014375
91,Lab-Sar,3884,BAL,Balkh,1,AF,Afghanistan,36.02634000,66.83799000,Q21813067
97,Mazār-e Sharīf,3884,BAL,Balkh,1,AF,Afghanistan,36.70904000,67.11087000,Q130469
112,Qarchī Gak,3884,BAL,Balkh,1,AF,Afghanistan,37.03999000,66.78891000,Q3290339
57,Bāmyān,3872,BAM,Bamyan,1,AF,Afghanistan,34.82156000,67.82734000,Q214495
104,Panjāb,3872,BAM,Bamyan,1,AF,Afghanistan,34.38795000,67.02327000,Q7131225
102,Nīlī,3892,DAY,Daykundi,1,AF,Afghanistan,33.76329000,66.07617000,Q3218967
66,Farah,3899,FRA,Farah,1,AF,Afghanistan,32.37451000,62.11638000,Q593156
50,Andkhoy,3889,FYB,Faryab,1,AF,Afghanistan,36.95293000,65.12376000,Q1054127
96,Maymana,3889,FYB,Faryab,1,AF,Afghanistan,35.92139000,64.78361000,Q309345
71,Ghazni,3870,GHA,Ghazni,1,AF,Afghanistan,33.55391000,68.42096000,Q173731
67,Fayrōz Kōh,3888,GHO,Ghōr,1,AF,Afghanistan,34.51952000,65.25093000,Q958621
121,Shahrak,3888,GHO,Ghōr,1,AF,Afghanistan,34.10737000,64.30520000,Q7461922
141,‘Alāqahdārī Dīshū,3873,HEL,Helmand,1,AF,Afghanistan,30.43206000,63.29802000,Q5194960
70,Gereshk,3873,HEL,Helmand,1,AF,Afghanistan,31.82089000,64.57005000,Q3735459
93,Lashkar Gāh,3873,HEL,Helmand,1,AF,Afghanistan,31.59382000,64.37161000,Q476800
95,Markaz-e Ḩukūmat-e Darwēshān,3873,HEL,Helmand,1,AF,Afghanistan,31.13231000,64.19340000,Q21758384
118,Sangīn,3873,HEL,Helmand,1,AF,Afghanistan,32.07275000,64.83590000,Q2457742
60,Chahār Burj,3887,HER,Herat,1,AF,Afghanistan,34.24475000,62.19165000,Q21763949
73,Ghōriyān,3887,HER,Herat,1,AF,Afghanistan,34.34480000,61.49321000,Q2634612
74,Herāt,3887,HER,Herat,1,AF,Afghanistan,34.34817000,62.19967000,Q45313
80,Kafir Qala,3887,HER,Herat,1,AF,Afghanistan,34.66667000,61.06667000,Q4115284
82,Karukh,3887,HER,Herat,1,AF,Afghanistan,34.48108000,62.58630000,Q6373621
88,Kuhsān,3887,HER,Herat,1,AF,Afghanistan,34.65389000,61.19778000,Q6426147
90,Kushk,3887,HER,Herat,1,AF,Afghanistan,33.29565000,61.95221000,Q21751918
111,Qarah Bāgh,3887,HER,Herat,1,AF,Afghanistan,34.94023000,61.77589000,Q21750144
123,Shīnḏanḏ,3887,HER,Herat,1,AF,Afghanistan,33.30294000,62.14740000,Q3944388
129,Tīr Pul,3887,HER,Herat,1,AF,Afghanistan,34.59431000,61.26895000,Q21740029
135,Zindah Jān,3887,HER,Herat,1,AF,Afghanistan,34.34264000,61.74675000,Q5918492
136,Āqchah,3886,JOW,Jowzjan,1,AF,Afghanistan,36.90500000,66.18341000,Q2246526
63,Darzāb,3886,JOW,Jowzjan,1,AF,Afghanistan,35.97744000,65.37828000,Q5196429
113,Qarqīn,3886,JOW,Jowzjan,1,AF,Afghanistan,37.41853000,66.04358000,Q5199398
122,Shibirghān,3886,JOW,Jowzjan,1,AF,Afghanistan,36.66757000,65.75290000,Q838954
79,Kabul,3902,KAB,Kabul,1,AF,Afghanistan,34.52813000,69.17233000,Q5838
99,Mīr Bachah Kōṯ,3902,KAB,Kabul,1,AF,Afghanistan,34.74999000,69.11899000,Q6872026
103,Paghmān,3902,KAB,Kabul,1,AF,Afghanistan,34.58787000,68.95091000,Q2502256
81,Kandahār,3890,KAN,Kandahar,1,AF,Afghanistan,31.61332000,65.71013000,Q45604
124,Sidqābād,3879,KAP,Kapisa,1,AF,Afghanistan,35.02298000,69.35112000,Q600514
87,Khōst,3878,KHO,Khost,1,AF,Afghanistan,33.33951000,69.92041000,Q386682
51,Asadabad,3876,KNR,Kunar,1,AF,Afghanistan,34.87311000,71.14697000,Q685808
138,Āsmār,3876,KNR,Kunar,1,AF,Afghanistan,35.03333000,71.35809000,Q21765090
64,Dasht-e Archī,3900,KDZ,Kunduz Province,1,AF,Afghanistan,37.13333000,69.16667000,Q21758408
75,Imām Şāḩib,3900,KDZ,Kunduz Province,1,AF,Afghanistan,37.18897000,68.93644000,Q670101
83,Khanabad,3900,KDZ,Kunduz Province,1,AF,Afghanistan,36.68250000,69.11556000,Q1247205
89,Kunduz,3900,KDZ,Kunduz Province,1,AF,Afghanistan,36.72895000,68.85700000,Q108155
114,Qarāwul,3900,KDZ,Kunduz Province,1,AF,Afghanistan,37.21959000,68.78020000,Q21748632
98,Mehtar Lām,3891,LAG,Laghman,1,AF,Afghanistan,34.67139000,70.20944000,Q1982155
56,Baraki Barak,3897,LOG,Logar,1,AF,Afghanistan,33.96744000,68.94920000,Q807234
139,Ḩukūmatī Azrah,3897,LOG,Logar,1,AF,Afghanistan,34.17355000,69.64573000,Q21765090
106,Pul-e ‘Alam,3897,LOG,Logar,1,AF,Afghanistan,33.99529000,69.02274000,Q1006289
58,Bāsawul,3882,NAN,Nangarhar,1,AF,Afghanistan,34.24749000,70.87218000,Q214495
77,Jalālābād,3882,NAN,Nangarhar,1,AF,Afghanistan,34.42647000,70.45153000,Q183303
94,Markaz-e Woluswalī-ye Āchīn,3882,NAN,Nangarhar,1,AF,Afghanistan,34.12583000,70.70778000,Q476800
86,Khāsh,3896,NIM,Nimruz,1,AF,Afghanistan,31.52919000,62.79055000,Q21752345
100,Mīrābād,3896,NIM,Nimruz,1,AF,Afghanistan,30.43624000,61.83830000,Q21751462
116,Rūdbār,3896,NIM,Nimruz,1,AF,Afghanistan,30.15000000,62.60000000,Q21748160
132,Zaranj,3896,NIM,Nimruz,1,AF,Afghanistan,30.95962000,61.86037000,Q475802
107,Pārūn,3880,NUR,Nuristan,1,AF,Afghanistan,35.42064000,70.92261000,Q1023669
69,Gardez,3894,PIA,Paktia,1,AF,Afghanistan,33.59744000,69.22592000,Q467632
120,Saṟōbī,3877,PKA,Paktika,1,AF,Afghanistan,32.75221000,69.04587000,Q6596821
134,Zaṟah Sharan,3877,PKA,Paktika,1,AF,Afghanistan,33.14641000,68.79213000,Q2615863
133,Zarghūn Shahr,3877,PKA,Paktika,1,AF,Afghanistan,32.84734000,68.44573000,Q21737614
59,Bāzārak,3881,PAN,Panjshir,1,AF,Afghanistan,35.31292000,69.51519000,Q214495
61,Charikar,3895,PAR,Parwan,1,AF,Afghanistan,35.01361000,69.17139000,Q944395
76,Jabal os Saraj,3895,PAR,Parwan,1,AF,Afghanistan,35.11833000,69.23778000,Q670101
53,Aībak,3883,SAM,Samangan,1,AF,Afghanistan,36.26468000,68.01551000,Q1020649
62,Chīras,3885,SAR,Sar-e Pol,1,AF,Afghanistan,35.41674000,65.98234000,Q21760615
92,Larkird,3885,SAR,Sar-e Pol,1,AF,Afghanistan,35.48936000,66.66409000,Q21752020
110,Qal‘ah-ye Shahr,3885,SAR,Sar-e Pol,1,AF,Afghanistan,35.54729000,65.56760000,Q21750144
117,Sang-e Chārak,3885,SAR,Sar-e Pol,1,AF,Afghanistan,35.84972000,66.43694000,Q21748160
119,Sar-e Pul,3885,SAR,Sar-e Pol,1,AF,Afghanistan,36.21544000,65.93249000,Q1649301
125,Tagāw-Bāy,3885,SAR,Sar-e Pol,1,AF,Afghanistan,35.69941000,66.06164000,Q21742929
128,Tukzār,3885,SAR,Sar-e Pol,1,AF,Afghanistan,35.94831000,66.42132000,Q7851883
137,Ārt Khwājah,3893,TAK,Takhar,1,AF,Afghanistan,37.08571000,69.47958000,Q21765117
126,Taloqan,3893,TAK,Takhar,1,AF,Afghanistan,36.73605000,69.53451000,Q477238
127,Tarinkot,3898,URU,Urozgan,1,AF,Afghanistan,32.62998000,65.87806000,Q989293
130,Uruzgān,3898,URU,Urozgan,1,AF,Afghanistan,32.92775000,66.63253000,Q21750884
109,Qalāt,3874,ZAB,Zabul,1,AF,Afghanistan,32.10575000,66.90833000,Q527318
153,Banaj,629,BR,Berat District,3,AL,Albania,40.82492000,19.84074000,Q3301181
154,Bashkia Berat,629,BR,Berat District,3,AL,Albania,40.69997000,19.94983000,Q3301181
170,Bashkia Kuçovë,629,BR,Berat District,3,AL,Albania,40.82489000,19.95350000,Q16350064
180,Bashkia Poliçan,629,BR,Berat District,3,AL,Albania,40.58608000,20.04535000,Q16350064
186,Bashkia Skrapar,629,BR,Berat District,3,AL,Albania,40.56036000,20.25477000,Q16350064
191,Berat,629,BR,Berat District,3,AL,Albania,40.70583000,19.95222000,Q170244
280,Çorovodë,629,BR,Berat District,3,AL,Albania,40.50417000,20.22722000,Q19307
219,Kuçovë,629,BR,Berat District,3,AL,Albania,40.80028000,19.91667000,Q18774
238,Poliçan,629,BR,Berat District,3,AL,Albania,40.61222000,20.09806000,Q18751
242,Rrethi i Beratit,629,BR,Berat District,3,AL,Albania,40.66667000,20.00000000,Q202981
253,Rrethi i Kuçovës,629,BR,Berat District,3,AL,Albania,40.83333000,19.91667000,Q211946
258,Rrethi i Skraparit,629,BR,Berat District,3,AL,Albania,40.55000000,20.26667000,Q194381
273,Ura Vajgurore,629,BR,Berat District,3,AL,Albania,40.76889000,19.87778000,Q1524575
155,Bashkia Bulqizë,610,09,Dibër County,3,AL,Albania,41.47152000,20.33192000,Q3301181
165,Bashkia Klos,610,09,Dibër County,3,AL,Albania,41.50826000,20.07107000,Q16350064
176,Bashkia Mat,610,09,Dibër County,3,AL,Albania,41.63317000,20.01228000,Q16350064
193,Bulqizë,610,09,Dibër County,3,AL,Albania,41.49167000,20.22194000,Q463384
194,Burrel,610,09,Dibër County,3,AL,Albania,41.61028000,20.00889000,Q461313
209,Klos,610,09,Dibër County,3,AL,Albania,41.50694000,20.08667000,Q278613
236,Peshkopi,610,09,Dibër County,3,AL,Albania,41.68500000,20.42889000,Q223154
243,Rrethi i Bulqizës,610,09,Dibër County,3,AL,Albania,41.50000000,20.33333000,Q191872
246,Rrethi i Dibrës,610,09,Dibër County,3,AL,Albania,41.75000000,20.33333000,Q192123
256,Rrethi i Matit,610,09,Dibër County,3,AL,Albania,41.58333000,20.08333000,Q202665
272,Ulëz,610,09,Dibër County,3,AL,Albania,41.68278000,19.89333000,Q2542462
159,Bashkia Durrës,639,DR,Durrës District,3,AL,Albania,41.42743000,19.48690000,Q16350064
168,Bashkia Krujë,639,DR,Durrës District,3,AL,Albania,41.50091000,19.72571000,Q16350064
185,Bashkia Shijak,639,DR,Durrës District,3,AL,Albania,41.33558000,19.58977000,Q16350064
197,Durrës,639,DR,Durrës District,3,AL,Albania,41.32355000,19.45469000,Q83285
198,Durrës District,639,DR,Durrës District,3,AL,Albania,41.31660000,19.45000000,Q37662
203,Fushë-Krujë,639,DR,Durrës District,3,AL,Albania,41.47833000,19.71778000,Q22012409
214,Krujë,639,DR,Durrës District,3,AL,Albania,41.50917000,19.79278000,Q194164
250,Rrethi i Krujës,639,DR,Durrës District,3,AL,Albania,41.55000000,19.75000000,Q194178
265,Shijak,639,DR,Durrës District,3,AL,Albania,41.34556000,19.56722000,Q18791
269,Sukth,639,DR,Durrës District,3,AL,Albania,41.38056000,19.53778000,Q593557
152,Ballsh,631,04,Fier County,3,AL,Albania,40.59889000,19.73472000,Q743016
157,Bashkia Divjakë,631,04,Fier County,3,AL,Albania,40.95716000,19.52364000,Q16350064
160,Bashkia Fier,631,04,Fier County,3,AL,Albania,40.72937000,19.48690000,Q16350064
174,Bashkia Mallakastër,631,04,Fier County,3,AL,Albania,40.55669000,19.77347000,Q16350064
179,Bashkia Patos,631,04,Fier County,3,AL,Albania,40.67793000,19.65591000,Q16350064
196,Divjakë,631,04,Fier County,3,AL,Albania,40.99667000,19.52944000,Q1945622
200,Fier,631,04,Fier County,3,AL,Albania,40.72389000,19.55611000,Q190897
201,Fier-Çifçi,631,04,Fier County,3,AL,Albania,40.71667000,19.56667000,Q22012402
227,Lushnjë,631,04,Fier County,3,AL,Albania,40.94194000,19.70500000,Q212680
234,Patos,631,04,Fier County,3,AL,Albania,40.68333000,19.61944000,Q18709
235,Patos Fshat,631,04,Fier County,3,AL,Albania,40.64278000,19.65083000,Q13044035
241,Roskovec,631,04,Fier County,3,AL,Albania,40.73750000,19.70222000,Q18746
254,Rrethi i Mallakastrës,631,04,Fier County,3,AL,Albania,40.55000000,19.78333000,Q211946
158,Bashkia Dropull,621,GJ,Gjirokastër District,3,AL,Albania,39.98584000,20.30529000,Q16350064
164,Bashkia Kelcyrë,621,GJ,Gjirokastër District,3,AL,Albania,40.36196000,20.16476000,Q16350064
172,Bashkia Libohovë,621,GJ,Gjirokastër District,3,AL,Albania,40.10754000,20.25753000,Q16350064
177,Bashkia Memaliaj,621,GJ,Gjirokastër District,3,AL,Albania,40.41524000,19.96911000,Q16350064
183,Bashkia Përmet,621,GJ,Gjirokastër District,3,AL,Albania,40.23246000,20.41091000,Q16350064
187,Bashkia Tepelenë,621,GJ,Gjirokastër District,3,AL,Albania,40.26736000,19.97003000,Q16350064
204,Gjinkar,621,GJ,Gjirokastër District,3,AL,Albania,40.19944000,20.40611000,Q155137
205,Gjirokastër,621,GJ,Gjirokastër District,3,AL,Albania,40.07583000,20.13889000,Q173690
220,Këlcyrë,621,GJ,Gjirokastër District,3,AL,Albania,40.31306000,20.18944000,Q1007556
221,Lazarat,621,GJ,Gjirokastër District,3,AL,Albania,40.04667000,20.14750000,Q2713473
225,Libohovë,621,GJ,Gjirokastër District,3,AL,Albania,40.03111000,20.26306000,Q18738
231,Memaliaj,621,GJ,Gjirokastër District,3,AL,Albania,40.35167000,19.98028000,Q18749
240,Përmet,621,GJ,Gjirokastër District,3,AL,Albania,40.23361000,20.35167000,Q642856
270,Tepelenë,621,GJ,Gjirokastër District,3,AL,Albania,40.29583000,20.01917000,Q81631
156,Bashkia Devoll,630,06,Korçë County,3,AL,Albania,40.60078000,20.93814000,Q3301181
166,Bashkia Kolonjë,630,06,Korçë County,3,AL,Albania,40.31420000,20.61482000,Q16350064
173,Bashkia Maliq,630,06,Korçë County,3,AL,Albania,40.75508000,20.60748000,Q16350064
182,Bashkia Pustec,630,06,Korçë County,3,AL,Albania,40.83591000,20.89405000,Q16350064
192,Bilisht,630,06,Korçë County,3,AL,Albania,40.62750000,20.99000000,Q817140
199,Ersekë,630,06,Korçë County,3,AL,Albania,40.33778000,20.67889000,Q18793
212,Korçë,630,06,Korçë County,3,AL,Albania,40.61861000,20.78083000,Q116341
223,Leskovik,630,06,Korçë County,3,AL,Albania,40.15139000,20.59722000,Q18768
226,Libonik,630,06,Korçë County,3,AL,Albania,40.70444000,20.70861000,Q628181
228,Maliq,630,06,Korçë County,3,AL,Albania,40.70583000,20.69972000,Q772248
230,Mborje,630,06,Korçë County,3,AL,Albania,40.60333000,20.80306000,Q16347657
237,Pogradec,630,06,Korçë County,3,AL,Albania,40.90250000,20.65250000,Q73639
245,Rrethi i Devollit,630,06,Korçë County,3,AL,Albania,40.58333000,20.91667000,Q192126
249,Rrethi i Kolonjës,630,06,Korçë County,3,AL,Albania,40.25000000,20.66667000,Q194178
275,Velçan,630,06,Korçë County,3,AL,Albania,40.95472000,20.46222000,Q285899
278,Voskopojë,630,06,Korçë County,3,AL,Albania,40.63306000,20.58889000,Q757298
151,Bajram Curri,623,KU,Kukës District,3,AL,Albania,42.35734000,20.07679000,Q18705
215,Krumë,623,KU,Kukës District,3,AL,Albania,42.19694000,20.41333000,Q958899
217,Kukës,623,KU,Kukës District,3,AL,Albania,42.07694000,20.42194000,Q210197
247,Rrethi i Hasit,623,KU,Kukës District,3,AL,Albania,42.16667000,20.33333000,Q207007
251,Rrethi i Kukësit,623,KU,Kukës District,3,AL,Albania,42.00000000,20.33333000,Q123395
169,Bashkia Kurbin,609,08,Lezhë County,3,AL,Albania,41.62215000,19.70734000,Q16350064
171,Bashkia Lezhë,609,08,Lezhë County,3,AL,Albania,41.81320000,19.64121000,Q16350064
178,Bashkia Mirditë,609,08,Lezhë County,3,AL,Albania,41.80953000,19.99024000,Q16350064
218,Kurbnesh,609,08,Lezhë County,3,AL,Albania,41.77972000,20.08361000,Q616927
222,Laç,609,08,Lezhë County,3,AL,Albania,41.63556000,19.71306000,Q18768
224,Lezhë,609,08,Lezhë County,3,AL,Albania,41.78361000,19.64361000,Q169160
229,Mamurras,609,08,Lezhë County,3,AL,Albania,41.57750000,19.69222000,Q991268
232,Milot,609,08,Lezhë County,3,AL,Albania,41.68389000,19.71556000,Q18749
261,Rrëshen,609,08,Lezhë County,3,AL,Albania,41.76750000,19.87556000,Q18737
252,Rrethi i Kurbinit,609,08,Lezhë County,3,AL,Albania,41.63333000,19.71667000,Q123602
262,Rubik,609,08,Lezhë County,3,AL,Albania,41.77444000,19.78611000,Q19259
267,Shëngjin,609,08,Lezhë County,3,AL,Albania,41.81361000,19.59389000,Q606485
175,Bashkia Malësi e Madhe,626,SH,Shkodër District,3,AL,Albania,42.36798000,19.58977000,Q16350064
181,Bashkia Pukë,626,SH,Shkodër District,3,AL,Albania,42.02997000,19.92778000,Q16350064
188,Bashkia Vau i Dejës,626,SH,Shkodër District,3,AL,Albania,42.04834000,19.69999000,Q16350064
202,Fushë-Arrëz,626,SH,Shkodër District,3,AL,Albania,42.06222000,20.01667000,Q22005048
211,Koplik,626,SH,Shkodër District,3,AL,Albania,42.21361000,19.43639000,Q991288
239,Pukë,626,SH,Shkodër District,3,AL,Albania,42.04444000,19.89972000,Q19310
255,Rrethi i Malësia e Madhe,626,SH,Shkodër District,3,AL,Albania,42.33333000,19.58333000,Q236845
257,Rrethi i Shkodrës,626,SH,Shkodër District,3,AL,Albania,42.06917000,19.53506000,Q194176
266,Shkodër,626,SH,Shkodër District,3,AL,Albania,42.06828000,19.51258000,Q131638
274,Vau i Dejës,626,SH,Shkodër District,3,AL,Albania,42.01000000,19.62472000,Q1787536
279,Vukatanë,626,SH,Shkodër District,3,AL,Albania,42.02806000,19.54778000,Q757298
163,Bashkia Kavajë,633,TR,Tirana District,3,AL,Albania,41.18127000,19.55579000,Q16350064
190,Bashkia Vorë,633,TR,Tirana District,3,AL,Albania,41.39804000,19.67703000,Q16350064
207,Kamëz,633,TR,Tirana District,3,AL,Albania,41.38167000,19.76028000,Q605160
208,Kavajë,633,TR,Tirana District,3,AL,Albania,41.18556000,19.55694000,Q46702
213,Krrabë,633,TR,Tirana District,3,AL,Albania,41.21556000,19.97139000,Q22009668
248,Rrethi i Kavajës,633,TR,Tirana District,3,AL,Albania,41.16667000,19.58333000,Q194182
259,Rrethi i Tiranës,633,TR,Tirana District,3,AL,Albania,41.33333000,19.91667000,Q201073
260,Rrogozhinë,633,TR,Tirana District,3,AL,Albania,41.07639000,19.66528000,Q22008389
268,Sinaballaj,633,TR,Tirana District,3,AL,Albania,41.06889000,19.69944000,Q602969
271,Tirana,633,TR,Tirana District,3,AL,Albania,41.32750000,19.81889000,Q19689
277,Vorë,633,TR,Tirana District,3,AL,Albania,41.39083000,19.65500000,Q22007611
161,Bashkia Finiq,634,12,Vlorë County,3,AL,Albania,39.84393000,20.16659000,Q16350064
162,Bashkia Himarë,634,12,Vlorë County,3,AL,Albania,40.11581000,19.81389000,Q16350064
167,Bashkia Konispol,634,12,Vlorë County,3,AL,Albania,39.70064000,20.13353000,Q16350064
184,Bashkia Selenicë,634,12,Vlorë County,3,AL,Albania,40.39503000,19.65958000,Q16350064
189,Bashkia Vlorë,634,12,Vlorë County,3,AL,Albania,40.41340000,19.49792000,Q16350064
195,Delvinë,634,12,Vlorë County,3,AL,Albania,39.95111000,20.09778000,Q372872
206,Himarë,634,12,Vlorë County,3,AL,Albania,40.10167000,19.74472000,Q5765138
210,Konispol,634,12,Vlorë County,3,AL,Albania,39.65889000,20.18139000,Q18731
216,Ksamil,634,12,Vlorë County,3,AL,Albania,39.76889000,19.99972000,Q1790776
233,Orikum,634,12,Vlorë County,3,AL,Albania,40.32528000,19.47139000,Q22009845
244,Rrethi i Delvinës,634,12,Vlorë County,3,AL,Albania,39.91667000,20.08333000,Q166959
263,Sarandë,634,12,Vlorë County,3,AL,Albania,39.87534000,20.00477000,Q193226
264,Selenicë,634,12,Vlorë County,3,AL,Albania,40.53056000,19.63583000,Q134613
276,Vlorë,634,12,Vlorë County,3,AL,Albania,40.46860000,19.48318000,Q159610
31227,Adrar,1118,01,Adrar,4,DZ,Algeria,27.87429000,-0.29388000,Q251181
31234,Aoulef,1118,01,Adrar,4,DZ,Algeria,26.96667000,1.08333000,Q602548
31406,Reggane,1118,01,Adrar,4,DZ,Algeria,26.71576000,0.17140000,Q582905
31450,Timimoun,1118,01,Adrar,4,DZ,Algeria,29.26388000,0.23098000,Q1021173
31243,Aïn Defla,1119,44,Aïn Defla,4,DZ,Algeria,36.26405000,1.96790000,Q168846
31325,El Abadia,1119,44,Aïn Defla,4,DZ,Algeria,36.26951000,1.68609000,Q1649058
31331,El Attaf,1119,44,Aïn Defla,4,DZ,Algeria,36.22393000,1.67187000,Q1029528
31361,Khemis Miliana,1119,44,Aïn Defla,4,DZ,Algeria,36.26104000,2.22015000,Q954285
31448,Theniet el Had,1119,44,Aïn Defla,4,DZ,Algeria,35.87111000,2.02806000,Q3054256
31250,Aïn Temouchent,1122,46,Aïn Témouchent,4,DZ,Algeria,35.29749000,-1.14037000,Q2876387
31265,Beni Saf,1122,46,Aïn Témouchent,4,DZ,Algeria,35.30099000,-1.38226000,Q80408
31329,El Amria,1122,46,Aïn Témouchent,4,DZ,Algeria,35.52439000,-1.01577000,Q1657351
31340,El Malah,1122,46,Aïn Témouchent,4,DZ,Algeria,35.39137000,-1.09238000,Q1649298
31351,Hammam Bou Hadjar,1122,46,Aïn Témouchent,4,DZ,Algeria,35.37889000,-0.96778000,Q887319
31249,Aïn Taya,1144,16,Algiers,4,DZ,Algeria,36.79333000,3.28694000,Q2876387
31230,Algiers,1144,16,Algiers,4,DZ,Algeria,36.73225000,3.08746000,Q3561
31254,Bab Ezzouar,1144,16,Algiers,4,DZ,Algeria,36.72615000,3.18291000,Q59579
31274,Birkhadem,1144,16,Algiers,4,DZ,Algeria,36.71499000,3.05002000,Q2904515
31281,Bordj el Kiffan,1144,16,Algiers,4,DZ,Algeria,36.74871000,3.19249000,Q1184993
31312,Dar el Beïda,1144,16,Algiers,4,DZ,Algeria,36.71333000,3.21250000,Q59419
31413,Rouiba,1144,16,Algiers,4,DZ,Algeria,36.73829000,3.28079000,Q2215980
31233,Annaba,1103,23,Annaba,4,DZ,Algeria,36.90000000,7.76667000,Q45942
31267,Berrahal,1103,23,Annaba,4,DZ,Algeria,36.83528000,7.45333000,Q1649131
31323,Drean,1103,23,Annaba,4,DZ,Algeria,36.68482000,7.75111000,Q1924629
31334,El Hadjar,1103,23,Annaba,4,DZ,Algeria,36.80377000,7.73684000,Q3043115
31251,Aïn Touta,1142,05,Batna,4,DZ,Algeria,35.37675000,5.90001000,Q2876412
31237,Arris,1142,05,Batna,4,DZ,Algeria,35.25881000,6.34706000,Q1388056
31257,Barika,1142,05,Batna,4,DZ,Algeria,35.38901000,5.36584000,Q648253
31258,Batna,1142,05,Batna,4,DZ,Algeria,35.55597000,6.17414000,Q338844
31292,Boumagueur,1142,05,Batna,4,DZ,Algeria,35.50520000,5.55250000,Q1648911
31382,Merouana,1142,05,Batna,4,DZ,Algeria,35.63106000,5.91186000,Q3174992
31415,Râs el Aïoun,1142,05,Batna,4,DZ,Algeria,35.67384000,5.64530000,Q982735
31444,Tazoult-Lambese,1142,05,Batna,4,DZ,Algeria,35.48171000,6.26074000,Q1309744
31298,Béchar,1108,08,Béchar,4,DZ,Algeria,31.61667000,-2.21667000,Q638704
31229,Akbou,1128,06,Béjaïa,4,DZ,Algeria,36.45750000,4.53494000,Q2828968
31231,Amizour,1128,06,Béjaïa,4,DZ,Algeria,36.64022000,4.90131000,Q2214578
31256,Barbacha,1128,06,Béjaïa,4,DZ,Algeria,36.56667000,4.96667000,Q2214633
31259,Bejaïa,1128,06,Béjaïa,4,DZ,Algeria,36.75587000,5.08433000,Q59975
31467,el hed,1128,06,Béjaïa,4,DZ,Algeria,36.65000000,4.77361000,Q3575264
31339,El Kseur,1128,06,Béjaïa,4,DZ,Algeria,36.67942000,4.85550000,Q1649095
31344,Feraoun,1128,06,Béjaïa,4,DZ,Algeria,36.56041000,4.85454000,Q2215098
31421,Seddouk,1128,06,Béjaïa,4,DZ,Algeria,36.54722000,4.68611000,Q2223541
31275,Biskra,1114,07,Biskra,4,DZ,Algeria,34.85038000,5.72805000,Q312759
31405,Oumache,1114,07,Biskra,4,DZ,Algeria,34.69292000,5.68092000,Q3358295
31427,Sidi Khaled,1114,07,Biskra,4,DZ,Algeria,34.38700000,4.98785000,Q2215511
31430,Sidi Okba,1114,07,Biskra,4,DZ,Algeria,34.74512000,5.89833000,Q2215485
31461,Tolga,1114,07,Biskra,4,DZ,Algeria,34.72224000,5.37845000,Q2280394
31466,Zeribet el Oued,1114,07,Biskra,4,DZ,Algeria,34.68284000,6.51109000,Q3575264
31263,Beni Mered,1111,09,Blida,4,DZ,Algeria,36.52389000,2.86131000,Q2895897
31276,Blida,1111,09,Blida,4,DZ,Algeria,36.47004000,2.82770000,Q216990
31296,Boû Arfa,1111,09,Blida,4,DZ,Algeria,36.46298000,2.81464000,Q23820810
31287,Boufarik,1111,09,Blida,4,DZ,Algeria,36.57413000,2.91214000,Q2344308
31289,Bougara,1111,09,Blida,4,DZ,Algeria,36.54178000,3.08100000,Q2573679
31290,Bouinan,1111,09,Blida,4,DZ,Algeria,36.53167000,2.99194000,Q2921643
31301,Chebli,1111,09,Blida,4,DZ,Algeria,36.57722000,3.00917000,Q1649700
31307,Chiffa,1111,09,Blida,4,DZ,Algeria,36.46293000,2.73873000,Q2963503
31369,Larbaâ,1111,09,Blida,4,DZ,Algeria,36.56471000,3.15434000,Q6488718
31377,Meftah,1111,09,Blida,4,DZ,Algeria,36.62040000,3.22248000,Q2215400
31428,Sidi Moussa,1111,09,Blida,4,DZ,Algeria,36.60637000,3.08783000,Q2215533
31438,Souma,1111,09,Blida,4,DZ,Algeria,36.51833000,2.90528000,Q23788953
31278,Bordj Bou Arreridj,1116,34,Bordj Bou Arréridj,4,DZ,Algeria,36.07321000,4.76108000,Q544733
31279,Bordj Ghdir,1116,34,Bordj Bou Arréridj,4,DZ,Algeria,35.90111000,4.89806000,Q23820716
31280,Bordj Zemoura,1116,34,Bordj Bou Arréridj,4,DZ,Algeria,36.27462000,4.85668000,Q1648662
31327,El Achir,1116,34,Bordj Bou Arréridj,4,DZ,Algeria,36.06386000,4.62744000,Q3049676
31373,Mansourah,1116,34,Bordj Bou Arréridj,4,DZ,Algeria,36.08725000,4.45192000,Q3286577
31381,Melouza,1116,34,Bordj Bou Arréridj,4,DZ,Algeria,35.97999000,4.18665000,Q23802689
31416,Râs el Oued,1116,34,Bordj Bou Arréridj,4,DZ,Algeria,35.94410000,5.03107000,Q23795725
31241,Aïn Bessem,1104,10,Bouïra,4,DZ,Algeria,36.29333000,3.67319000,Q2876271
31295,Bouïra,1104,10,Bouïra,4,DZ,Algeria,36.37489000,3.90200000,Q722522
31309,Chorfa,1104,10,Bouïra,4,DZ,Algeria,36.36505000,4.32636000,Q23816562
31322,Draa el Mizan,1104,10,Bouïra,4,DZ,Algeria,36.53628000,3.83340000,Q4119323
31368,Lakhdaria,1104,10,Bouïra,4,DZ,Algeria,36.56463000,3.59330000,Q2522066
31439,Sour el Ghozlane,1104,10,Bouïra,4,DZ,Algeria,36.14766000,3.69123000,Q312000
31235,Arbatache,1125,35,Boumerdès,4,DZ,Algeria,36.63773000,3.37127000,Q23824843
31261,Beni Amrane,1125,35,Boumerdès,4,DZ,Algeria,36.66774000,3.59115000,Q2223571
31286,Boudouaou,1125,35,Boumerdès,4,DZ,Algeria,36.72735000,3.40995000,Q311984
31294,Boumerdas,1125,35,Boumerdès,4,DZ,Algeria,36.76639000,3.47717000,Q770518
31299,Chabet el Ameur,1125,35,Boumerdès,4,DZ,Algeria,36.63709000,3.69474000,Q37926868
31314,Dellys,1125,35,Boumerdès,4,DZ,Algeria,36.91716000,3.91311000,Q3021755
31362,Khemis el Khechna,1125,35,Boumerdès,4,DZ,Algeria,36.64997000,3.33080000,Q3142813
31372,Makouda,1125,35,Boumerdès,4,DZ,Algeria,36.78567000,4.06273000,Q3280947
31393,Naciria,1125,35,Boumerdès,4,DZ,Algeria,36.74625000,3.83163000,Q6957278
31403,Ouled Moussa,1125,35,Boumerdès,4,DZ,Algeria,36.68394000,3.36661000,Q3055250
31407,Reghaïa,1125,35,Boumerdès,4,DZ,Algeria,36.73587000,3.34018000,Q1649935
31441,Tadmaït,1125,35,Boumerdès,4,DZ,Algeria,36.74413000,3.90045000,Q3513734
31447,Thenia,1125,35,Boumerdès,4,DZ,Algeria,36.72544000,3.55665000,Q2225013
31456,Tizi Gheniff,1125,35,Boumerdès,4,DZ,Algeria,36.58839000,3.77445000,Q3529984
31226,Abou el Hassan,1105,02,Chlef,4,DZ,Algeria,36.41657000,1.19616000,Q2821729
31291,Boukadir,1105,02,Chlef,4,DZ,Algeria,36.06629000,1.12602000,Q1648911
31308,Chlef,1105,02,Chlef,4,DZ,Algeria,36.16525000,1.33452000,Q849561
31324,Ech Chettia,1105,02,Chlef,4,DZ,Algeria,36.19591000,1.25537000,Q2962891
31397,Oued Fodda,1105,02,Chlef,4,DZ,Algeria,36.18503000,1.53299000,Q3358021
31399,Oued Sly,1105,02,Chlef,4,DZ,Algeria,36.10124000,1.19949000,Q1649555
31424,Sidi Akkacha,1105,02,Chlef,4,DZ,Algeria,36.46472000,1.30258000,Q1650037
31469,’Aïn Abid,1121,25,Constantine,4,DZ,Algeria,36.23194000,6.94333000,Q1649776
31248,Aïn Smara,1121,25,Constantine,4,DZ,Algeria,36.26740000,6.50135000,Q2876376
31310,Constantine,1121,25,Constantine,4,DZ,Algeria,36.36500000,6.61472000,Q1093156
31315,Didouche Mourad,1121,25,Constantine,4,DZ,Algeria,36.45250000,6.63639000,Q3027257
31338,El Khroub,1121,25,Constantine,4,DZ,Algeria,36.26333000,6.69361000,Q391129
31350,Hamma Bouziane,1121,25,Constantine,4,DZ,Algeria,36.41205000,6.59603000,Q3126488
31474,’Aïn el Bell,1098,17,Djelfa,4,DZ,Algeria,34.34381000,3.22475000,Q599887
31246,Aïn Oussera,1098,17,Djelfa,4,DZ,Algeria,35.45139000,2.90583000,Q651497
31273,Birine,1098,17,Djelfa,4,DZ,Algeria,35.63500000,3.22500000,Q1649303
31300,Charef,1098,17,Djelfa,4,DZ,Algeria,34.62098000,2.79503000,Q1649151
31311,Dar Chioukh,1098,17,Djelfa,4,DZ,Algeria,34.89638000,3.48543000,Q3015935
31318,Djelfa,1098,17,Djelfa,4,DZ,Algeria,34.67279000,3.26300000,Q2794758
31336,El Idrissia,1098,17,Djelfa,4,DZ,Algeria,34.44542000,2.52749000,Q1884792
31385,Messaad,1098,17,Djelfa,4,DZ,Algeria,34.15429000,3.50309000,Q609487
31297,Brezina,1129,32,El Bayadh,4,DZ,Algeria,33.09892000,1.26082000,Q2924791
31326,El Abiodh Sidi Cheikh,1129,32,El Bayadh,4,DZ,Algeria,32.89300000,0.54839000,Q3049673
31332,El Bayadh,1129,32,El Bayadh,4,DZ,Algeria,33.68318000,1.01927000,Q648784
31313,Debila,1099,39,El Oued,4,DZ,Algeria,33.51667000,6.95000000,Q3020835
31341,El Oued,1099,39,El Oued,4,DZ,Algeria,33.35608000,6.86319000,Q1649298
31408,Reguiba,1099,39,El Oued,4,DZ,Algeria,33.56391000,6.70326000,Q3325064
31411,Robbah,1099,39,El Oued,4,DZ,Algeria,33.27967000,6.90984000,Q2364827
31260,Ben Mehidi,1100,36,El Tarf,4,DZ,Algeria,36.76967000,7.90641000,Q253342
31270,Besbes,1100,36,El Tarf,4,DZ,Algeria,36.70222000,7.84722000,Q1649634
31337,El Kala,1100,36,El Tarf,4,DZ,Algeria,36.89556000,8.44333000,Q3050005
31342,El Tarf,1100,36,El Tarf,4,DZ,Algeria,36.76720000,8.31377000,Q770653
31268,Berriane,1127,47,Ghardaïa,4,DZ,Algeria,32.82648000,3.76689000,Q1649062
31347,Ghardaïa,1127,47,Ghardaïa,4,DZ,Algeria,32.49094000,3.67347000,Q622841
31386,Metlili Chaamba,1127,47,Ghardaïa,4,DZ,Algeria,32.26667000,3.63333000,Q3307398
31293,Boumahra Ahmed,1137,24,Guelma,4,DZ,Algeria,36.45833000,7.51389000,Q1649113
31348,Guelma,1137,24,Guelma,4,DZ,Algeria,36.46214000,7.42608000,Q609871
31355,Héliopolis,1137,24,Guelma,4,DZ,Algeria,36.50361000,7.44278000,Q3144664
31358,Illizi,1112,33,Illizi,4,DZ,Algeria,26.48333000,8.46667000,Q640740
31359,Jijel,1113,18,Jijel,4,DZ,Algeria,36.82055000,5.76671000,Q402726
31363,Khenchela,1126,40,Khenchela,4,DZ,Algeria,35.43583000,7.14333000,Q1649570
31228,Aflou,1138,03,Laghouat,4,DZ,Algeria,34.11279000,2.10228000,Q500560
31367,Laghouat,1138,03,Laghouat,4,DZ,Algeria,33.80000000,2.86514000,Q402733
31468,‘Aïn el Hadjel,1134,28,M'Sila,4,DZ,Algeria,35.67003000,3.88153000,Q1649776
31477,’Aïn el Melh,1134,28,M'Sila,4,DZ,Algeria,34.84146000,4.16383000,Q599887
31391,M’Sila,1134,28,M'Sila,4,DZ,Algeria,35.70583000,4.54194000,Q402825
31426,Sidi Aïssa,1134,28,M'Sila,4,DZ,Algeria,35.88548000,3.77236000,Q2214999
31282,Bou Hanifia el Hamamat,1124,29,Mascara,4,DZ,Algeria,35.31473000,-0.05037000,Q2911890
31375,Mascara,1124,29,Mascara,4,DZ,Algeria,35.39664000,0.14027000,Q545707
31400,Oued el Abtal,1124,29,Mascara,4,DZ,Algeria,35.45595000,0.68778000,Q3358012
31433,Sig,1124,29,Mascara,4,DZ,Algeria,35.52832000,-0.19369000,Q2744832
31471,’Aïn Boucif,1109,26,Médéa,4,DZ,Algeria,35.89123000,3.15850000,Q2876264
31269,Berrouaghia,1109,26,Médéa,4,DZ,Algeria,36.13516000,2.91085000,Q2214965
31366,Ksar el Boukhari,1109,26,Médéa,4,DZ,Algeria,35.88889000,2.74905000,Q3200144
31390,Médéa,1109,26,Médéa,4,DZ,Algeria,36.26417000,2.75393000,Q1982137
31302,Chelghoum el Aïd,1132,43,Mila,4,DZ,Algeria,36.16286000,6.16651000,Q23818040
31387,Mila,1132,43,Mila,4,DZ,Algeria,36.45028000,6.26444000,Q335676
31412,Rouached,1132,43,Mila,4,DZ,Algeria,36.45774000,6.04267000,Q23791421
31429,Sidi Mérouane,1132,43,Mila,4,DZ,Algeria,36.52056000,6.26111000,Q2215533
31446,Telerghma,1132,43,Mila,4,DZ,Algeria,36.11653000,6.35434000,Q3517295
31388,Mostaganem,1140,27,Mostaganem,4,DZ,Algeria,35.93115000,0.08918000,Q849524
31247,Aïn Sefra,1102,45,Naama,4,DZ,Algeria,32.75000000,-0.58333000,Q2745712
31392,Naama,1102,45,Naama,4,DZ,Algeria,33.26667000,-0.31667000,Q798212
31478,’Aïn el Turk,1101,31,Oran,4,DZ,Algeria,35.74381000,-0.76930000,Q740498
31252,Aïn el Bya,1101,31,Oran,4,DZ,Algeria,35.80389000,-0.30178000,Q23826440
31272,Bir el Djir,1101,31,Oran,4,DZ,Algeria,35.72000000,-0.54500000,Q401759
31284,Bou Tlelis,1101,31,Oran,4,DZ,Algeria,35.57272000,-0.89960000,Q23819224
31343,Es Senia,1101,31,Oran,4,DZ,Algeria,35.64779000,-0.62397000,Q649874
31383,Mers el Kebir,1101,31,Oran,4,DZ,Algeria,35.72790000,-0.70810000,Q31085
31395,Oran,1101,31,Oran,4,DZ,Algeria,35.69906000,-0.63588000,Q131818
31432,Sidi ech Chahmi,1101,31,Oran,4,DZ,Algeria,35.65903000,-0.52168000,Q2621177
31316,Djamaa,1139,30,Ouargla,4,DZ,Algeria,33.53388000,5.99306000,Q3032751
31335,El Hadjira,1139,30,Ouargla,4,DZ,Algeria,32.61336000,5.51259000,Q3049930
31353,Hassi Messaoud,1139,30,Ouargla,4,DZ,Algeria,31.68041000,6.07286000,Q1000139
31378,Megarine,1139,30,Ouargla,4,DZ,Algeria,33.19195000,6.08695000,Q2384877
31396,Ouargla,1139,30,Ouargla,4,DZ,Algeria,31.94932000,5.32502000,Q852469
31414,Rouissat,1139,30,Ouargla,4,DZ,Algeria,31.92427000,5.35018000,Q1649802
31425,Sidi Amrane,1139,30,Ouargla,4,DZ,Algeria,33.49885000,6.00803000,Q3325140
31445,Tebesbest,1139,30,Ouargla,4,DZ,Algeria,33.11667000,6.08333000,Q601174
31462,Touggourt,1139,30,Ouargla,4,DZ,Algeria,33.10527000,6.05796000,Q852515
31242,Aïn Beïda,1136,04,Oum El Bouaghi,4,DZ,Algeria,35.79639000,7.39278000,Q2088349
31244,Aïn Fakroun,1136,04,Oum El Bouaghi,4,DZ,Algeria,35.97108000,6.87374000,Q2876323
31245,Aïn Kercha,1136,04,Oum El Bouaghi,4,DZ,Algeria,35.92472000,6.69528000,Q593739
31330,El Aouinet,1136,04,Oum El Bouaghi,4,DZ,Algeria,35.86691000,7.88673000,Q921801
31384,Meskiana,1136,04,Oum El Bouaghi,4,DZ,Algeria,35.63058000,7.66606000,Q3306857
31404,Oum el Bouaghi,1136,04,Oum El Bouaghi,4,DZ,Algeria,35.87541000,7.11353000,Q5478122
31473,’Aïn Merane,1130,48,Relizane,4,DZ,Algeria,36.16277000,0.97037000,Q2876264
31232,Ammi Moussa,1130,48,Relizane,4,DZ,Algeria,35.86781000,1.11143000,Q4747238
31319,Djidiouia,1130,48,Relizane,4,DZ,Algeria,35.92989000,0.82871000,Q3032949
31376,Mazouna,1130,48,Relizane,4,DZ,Algeria,36.12232000,0.89865000,Q978267
31398,Oued Rhiou,1130,48,Relizane,4,DZ,Algeria,35.96124000,0.91896000,Q1571443
31409,Relizane,1130,48,Relizane,4,DZ,Algeria,35.73734000,0.55599000,Q402738
31435,Smala,1130,48,Relizane,4,DZ,Algeria,35.71652000,0.75437000,Q2292517
31464,Zemoura,1130,48,Relizane,4,DZ,Algeria,35.72251000,0.75509000,Q3324824
31475,’Aïn el Hadjar,1123,20,Saïda,4,DZ,Algeria,34.75846000,0.14528000,Q599887
31419,Saïda,1123,20,Saïda,4,DZ,Algeria,34.83033000,0.15171000,Q401452
31240,Aïn Arnat,1141,19,Sétif,4,DZ,Algeria,36.18683000,5.31347000,Q2876253
31253,BABOR - VILLE,1141,19,Sétif,4,DZ,Algeria,36.48994000,5.53930000,Q23826440
31288,Bougaa,1141,19,Sétif,4,DZ,Algeria,36.33293000,5.08843000,Q2921542
31333,El Eulma,1141,19,Sétif,4,DZ,Algeria,36.15281000,5.69016000,Q401747
31417,Salah Bey,1141,19,Sétif,4,DZ,Algeria,35.85451000,5.29053000,Q3469526
31440,Sétif,1141,19,Sétif,4,DZ,Algeria,36.19112000,5.41373000,Q244004
146185,Aïn El Berd District,4902,22,Sidi Bel Abbès,4,DZ,Algeria,35.35000000,-0.51667000,Q4833272
146186,Balidat Ameur,4902,22,Sidi Bel Abbès,4,DZ,Algeria,32.95138900,5.98055600,Q2906568
146187,Belarbi,4902,22,Sidi Bel Abbès,4,DZ,Algeria,35.15149480,-0.45679090,Q1648915
146188,"Ben Badis, Sid Bel Abbés",4902,22,Sidi Bel Abbès,4,DZ,Algeria,34.95277778,-0.91444444,Q2895336
146189,Djamaa,4902,22,Sidi Bel Abbès,4,DZ,Algeria,33.53137870,5.99098210,Q3032751
146190,El Bour,4902,22,Sidi Bel Abbès,4,DZ,Algeria,32.16305556,5.34527778,Q12403129
146191,El Hadjira,4902,22,Sidi Bel Abbès,4,DZ,Algeria,32.61666667,5.51666667,Q3049930
146192,Haoud El Hamra,4902,22,Sidi Bel Abbès,4,DZ,Algeria,31.88944444,5.97305556,Q12470040
146193,Hassi Messaoud,4902,22,Sidi Bel Abbès,4,DZ,Algeria,31.70000000,6.06666667,Q1000139
146194,Lamtar,4902,22,Sidi Bel Abbès,4,DZ,Algeria,35.07062700,-0.79814000,Q3216882
146195,Marhoum,4902,22,Sidi Bel Abbès,4,DZ,Algeria,34.44600420,-0.19502440,Q3290834
146196,Megarine,4902,22,Sidi Bel Abbès,4,DZ,Algeria,33.19262320,6.09346390,Q2384877
146197,Merine,4902,22,Sidi Bel Abbès,4,DZ,Algeria,34.78074720,-0.45104030,Q1649208
146198,Mezaourou,4902,22,Sidi Bel Abbès,4,DZ,Algeria,34.81732670,-0.62331890,Q1649368
146199,Moggar,4902,22,Sidi Bel Abbès,4,DZ,Algeria,33.26722222,6.06777778,Q12646398
146200,Moulay Slissen,4902,22,Sidi Bel Abbès,4,DZ,Algeria,34.81666667,-0.76666667,Q1649394
146201,N'Goussa,4902,22,Sidi Bel Abbès,4,DZ,Algeria,32.14087970,5.30828480,Q3334101
146202,Ouargla,4902,22,Sidi Bel Abbès,4,DZ,Algeria,31.95000000,5.31666667,Q852469
146203,Rouissat,4902,22,Sidi Bel Abbès,4,DZ,Algeria,31.93657600,5.33540730,Q1649802
146204,Sfissef,4902,22,Sidi Bel Abbès,4,DZ,Algeria,35.23440280,-0.24341580,Q3481104
146205,Sidi Ali Boussidi,4902,22,Sidi Bel Abbès,4,DZ,Algeria,35.10000000,-0.83333333,Q1650046
146206,Sidi Amrane,4902,22,Sidi Bel Abbès,4,DZ,Algeria,33.50000000,6.01666667,Q3325140
146207,Sidi Bel Abbès,4902,22,Sidi Bel Abbès,4,DZ,Algeria,35.20000000,-0.63333333,Q852276
146208,Sidi Brahim,4902,22,Sidi Bel Abbès,4,DZ,Algeria,35.26055600,-0.56750000,Q1650068
146209,Sidi Hamadouche,4902,22,Sidi Bel Abbès,4,DZ,Algeria,35.29916667,-0.54888889,Q1650247
146210,Sidi Slimane,4902,22,Sidi Bel Abbès,4,DZ,Algeria,33.28861111,6.09472222,Q3483291
146211,Sidi Yacoub,4902,22,Sidi Bel Abbès,4,DZ,Algeria,35.13333333,-0.78333333,Q1649961
146212,Sidi Yahia,4902,22,Sidi Bel Abbès,4,DZ,Algeria,33.52166667,5.94555556,Q11811858
146213,"Tabia, Sid Bel Abbés",4902,22,Sidi Bel Abbès,4,DZ,Algeria,35.01783660,-0.73385240,Q3512757
146214,Taibet,4902,22,Sidi Bel Abbès,4,DZ,Algeria,33.08391890,6.39996530,Q3513962
146215,Tamellaht,4902,22,Sidi Bel Abbès,4,DZ,Algeria,33.01190000,6.00972000,Q12641156
146216,Tamerna Djedida,4902,22,Sidi Bel Abbès,4,DZ,Algeria,33.44640000,5.95639000,Q11773942
146217,Tebesbest,4902,22,Sidi Bel Abbès,4,DZ,Algeria,33.12001290,6.08007430,Q601174
146218,Teghalimet,4902,22,Sidi Bel Abbès,4,DZ,Algeria,34.88283300,-0.56000230,Q3517138
146219,Telagh,4902,22,Sidi Bel Abbès,4,DZ,Algeria,34.78490640,-0.57317730,Q2215476
146220,Tenezara,4902,22,Sidi Bel Abbès,4,DZ,Algeria,34.96341170,-0.61446190,Q3518076
146221,Tenira,4902,22,Sidi Bel Abbès,4,DZ,Algeria,35.01966420,-0.53206440,Q1650283
146222,Tessala,4902,22,Sidi Bel Abbès,4,DZ,Algeria,35.24300000,-0.77316300,Q2381247
146223,Touggourt,4902,22,Sidi Bel Abbès,4,DZ,Algeria,33.10000000,6.06666667,Q852515
146224,Zerouala,4902,22,Sidi Bel Abbès,4,DZ,Algeria,35.24232450,-0.52219390,Q1650844
31239,Azzaba,1110,21,Skikda,4,DZ,Algeria,36.73944000,7.10528000,Q23823384
31360,Karkira,1110,21,Skikda,4,DZ,Algeria,36.92917000,6.58556000,Q1649432
31434,Skikda,1110,21,Skikda,4,DZ,Algeria,36.87617000,6.90921000,Q2292517
31442,Tamalous,1110,21,Skikda,4,DZ,Algeria,36.83763000,6.64018000,Q1650231
31422,Sedrata,1143,41,Souk Ahras,4,DZ,Algeria,36.12868000,7.53376000,Q1649881
31437,Souk Ahras,1143,41,Souk Ahras,4,DZ,Algeria,36.28639000,7.95111000,Q402992
31356,I-n-Salah,1135,11,Tamanghasset,4,DZ,Algeria,27.19351000,2.46069000,Q32061388
31443,Tamanrasset,1135,11,Tamanghasset,4,DZ,Algeria,22.78500000,5.52278000,Q205792
31271,Bir el Ater,1117,12,Tébessa,4,DZ,Algeria,34.74488000,8.06024000,Q2904370
31305,Cheria,1117,12,Tébessa,4,DZ,Algeria,35.27306000,7.75194000,Q736205
31352,Hammamet,1117,12,Tébessa,4,DZ,Algeria,35.44862000,7.95184000,Q3126511
31463,Tébessa,1117,12,Tébessa,4,DZ,Algeria,35.40417000,8.12417000,Q984575
31472,’Aïn Deheb,1106,14,Tiaret,4,DZ,Algeria,34.84218000,1.54697000,Q2876264
31317,Djebilet Rosfa,1106,14,Tiaret,4,DZ,Algeria,34.86375000,0.83496000,Q1649054
31346,Frenda,1106,14,Tiaret,4,DZ,Algeria,35.06544000,1.04945000,Q2215495
31365,Ksar Chellala,1106,14,Tiaret,4,DZ,Algeria,35.21222000,2.31889000,Q1648944
31379,Mehdia daira de meghila,1106,14,Tiaret,4,DZ,Algeria,35.43058000,1.75714000,Q3277676
31436,Sougueur,1106,14,Tiaret,4,DZ,Algeria,35.18568000,1.49612000,Q1483423
31449,Tiaret,1106,14,Tiaret,4,DZ,Algeria,35.37103000,1.31699000,Q565568
31452,Tindouf,1120,37,Tindouf,4,DZ,Algeria,27.67111000,-8.14743000,Q328510
31470,’Aïn Benian,1115,42,Tipasa,4,DZ,Algeria,36.80277000,2.92185000,Q2876264
31255,Baraki,1115,42,Tipasa,4,DZ,Algeria,36.66655000,3.09606000,Q2736044
31283,Bou Ismaïl,1115,42,Tipasa,4,DZ,Algeria,36.64262000,2.69007000,Q1438489
31304,Cheraga,1115,42,Tipasa,4,DZ,Algeria,36.76775000,2.95924000,Q335751
31320,Douera,1115,42,Tipasa,4,DZ,Algeria,36.67000000,2.94444000,Q1649106
31328,El Affroun,1115,42,Tipasa,4,DZ,Algeria,36.47010000,2.62528000,Q3049687
31349,Hadjout,1115,42,Tipasa,4,DZ,Algeria,36.51257000,2.41382000,Q3125565
31364,Kolea,1115,42,Tipasa,4,DZ,Algeria,36.63888000,2.76845000,Q3198497
31389,Mouzaïa,1115,42,Tipasa,4,DZ,Algeria,36.46695000,2.68991000,Q1649746
31401,Oued el Alleug,1115,42,Tipasa,4,DZ,Algeria,36.55528000,2.79028000,Q941199
31418,Saoula,1115,42,Tipasa,4,DZ,Algeria,36.70456000,3.02462000,Q1884982
31453,Tipasa,1115,42,Tipasa,4,DZ,Algeria,36.58972000,2.44750000,Q328510
31465,Zeralda,1115,42,Tipasa,4,DZ,Algeria,36.71169000,2.84244000,Q2215424
31370,Lardjem,1133,38,Tissemsilt,4,DZ,Algeria,35.74922000,1.54778000,Q3217877
31455,Tissemsilt,1133,38,Tissemsilt,4,DZ,Algeria,35.60722000,1.81081000,Q770447
31476,’Aïn el Hammam,1131,15,Tizi Ouzou,4,DZ,Algeria,36.56471000,4.30619000,Q599887
31236,Arhribs,1131,15,Tizi Ouzou,4,DZ,Algeria,36.79361000,4.31158000,Q1648638
31238,Azazga,1131,15,Tizi Ouzou,4,DZ,Algeria,36.74472000,4.37222000,Q2875118
31262,Beni Douala,1131,15,Tizi Ouzou,4,DZ,Algeria,36.61954000,4.08282000,Q2895885
31277,Boghni,1131,15,Tizi Ouzou,4,DZ,Algeria,36.54222000,3.95306000,Q1649016
31285,Boudjima,1131,15,Tizi Ouzou,4,DZ,Algeria,36.80218000,4.15187000,Q2921489
31303,Chemini,1131,15,Tizi Ouzou,4,DZ,Algeria,36.60000000,4.61667000,Q2962465
31321,Draa Ben Khedda,1131,15,Tizi Ouzou,4,DZ,Algeria,36.73436000,3.96223000,Q5306152
31345,Freha,1131,15,Tizi Ouzou,4,DZ,Algeria,36.75234000,4.31550000,Q1895391
31357,Ighram,1131,15,Tizi Ouzou,4,DZ,Algeria,36.46295000,4.50532000,Q2215840
31371,L’Arbaa Naït Irathen,1131,15,Tizi Ouzou,4,DZ,Algeria,36.63112000,4.19864000,Q764741
31380,Mekla,1131,15,Tizi Ouzou,4,DZ,Algeria,36.68178000,4.26378000,Q1649145
31451,Timizart,1131,15,Tizi Ouzou,4,DZ,Algeria,36.80000000,4.26667000,Q3529010
31454,Tirmitine,1131,15,Tizi Ouzou,4,DZ,Algeria,36.65393000,3.98143000,Q3529393
31457,Tizi Ouzou,1131,15,Tizi Ouzou,4,DZ,Algeria,36.71182000,4.04591000,Q277201
31458,Tizi Rached,1131,15,Tizi Ouzou,4,DZ,Algeria,36.67176000,4.19176000,Q3529993
31459,Tizi-n-Tleta,1131,15,Tizi Ouzou,4,DZ,Algeria,36.54569000,4.05712000,Q23782332
31264,Beni Mester,1107,13,Tlemcen,4,DZ,Algeria,34.87045000,-1.42319000,Q1649238
31266,Bensekrane,1107,13,Tlemcen,4,DZ,Algeria,35.07465000,-1.22431000,Q282544
31306,Chetouane,1107,13,Tlemcen,4,DZ,Algeria,34.92129000,-1.29512000,Q2962883
31354,Hennaya,1107,13,Tlemcen,4,DZ,Algeria,34.95139000,-1.36806000,Q3130297
31374,Mansoûra,1107,13,Tlemcen,4,DZ,Algeria,34.86158000,-1.33935000,Q3286584
31394,Nedroma,1107,13,Tlemcen,4,DZ,Algeria,35.01361000,-1.74799000,Q2670516
31402,Ouled Mimoun,1107,13,Tlemcen,4,DZ,Algeria,34.90472000,-1.03394000,Q2110236
31410,Remchi,1107,13,Tlemcen,4,DZ,Algeria,35.06196000,-1.43362000,Q3424477
31420,Sebdou,1107,13,Tlemcen,4,DZ,Algeria,34.63703000,-1.33143000,Q1649930
31423,Sidi Abdelli,1107,13,Tlemcen,4,DZ,Algeria,35.06937000,-1.13706000,Q3483155
31431,Sidi Senoussi سيدي سنوسي,1107,13,Tlemcen,4,DZ,Algeria,34.99691000,-1.09449000,Q2215485
31460,Tlemcen,1107,13,Tlemcen,4,DZ,Algeria,34.87833000,-1.31500000,Q185134
1,Andorra la Vella,488,07,Andorra la Vella,6,AD,Andorra,42.50779000,1.52109000,Q1863
3,Canillo,489,02,Canillo,6,AD,Andorra,42.56760000,1.59756000,Q24554
4,El Tarter,489,02,Canillo,6,AD,Andorra,42.57952000,1.65362000,Q24413
5,Encamp,487,03,Encamp,6,AD,Andorra,42.53474000,1.58014000,Q24413
7,Pas de la Casa,487,03,Encamp,6,AD,Andorra,42.54277000,1.73361000,Q24456
10,les Escaldes,492,08,Escaldes-Engordany,6,AD,Andorra,42.50729000,1.53414000,Q1050185
2,Arinsal,493,04,La Massana,6,AD,Andorra,42.57205000,1.48453000,Q24554
9,la Massana,493,04,La Massana,6,AD,Andorra,42.54499000,1.51483000,Q3820973
6,Ordino,491,05,Ordino,6,AD,Andorra,42.55623000,1.53319000,Q3885480
8,Sant Julià de Lòria,490,06,Sant Julià de Lòria,6,AD,Andorra,42.46372000,1.49129000,Q1120573
598,Caxito,221,BGO,Bengo Province,7,AO,Angola,-8.57848000,13.66425000,Q956745
590,Benguela,218,BGU,Benguela Province,7,AO,Angola,-12.57626000,13.40547000,Q214248
597,Catumbela,218,BGU,Benguela Province,7,AO,Angola,-12.43002000,13.54677000,Q1051360
613,Lobito,218,BGU,Benguela Province,7,AO,Angola,-12.36440000,13.53601000,Q223914
595,Camacupa,212,BIE,Bié Province,7,AO,Angola,-12.01667000,17.48333000,Q1027956
596,Catabola,212,BIE,Bié Province,7,AO,Angola,-12.15000000,17.28333000,Q2341822
605,Chissamba,212,BIE,Bié Province,7,AO,Angola,-12.16667000,17.33333000,Q2944808
606,Cuito,212,BIE,Bié Province,7,AO,Angola,-12.38333000,16.93333000,Q843980
591,Cabinda,228,CAB,Cabinda Province,7,AO,Angola,-5.55000000,12.20000000,Q459360
625,Menongue,226,CCU,Cuando Cubango Province,7,AO,Angola,-14.65850000,17.69099000,Q818731
594,Camabatela,217,CNO,Cuanza Norte Province,7,AO,Angola,-8.18812000,15.37495000,Q1619833
627,N’dalatando,217,CNO,Cuanza Norte Province,7,AO,Angola,-9.29782000,14.91162000,Q985803
629,Quibala,216,CUS,Cuanza Sul,7,AO,Angola,-10.73366000,14.97995000,Q602772
634,Sumbe,216,CUS,Cuanza Sul,7,AO,Angola,-11.20605000,13.84371000,Q780534
635,Uacu Cungo,216,CUS,Cuanza Sul,7,AO,Angola,-11.35669000,15.11719000,Q2944819
628,Ondjiva,215,CNN,Cunene Province,7,AO,Angola,-17.06667000,15.73333000,Q635045
600,Caála,213,HUA,Huambo Province,7,AO,Angola,-12.85250000,15.56056000,Q1052090
601,Chela,213,HUA,Huambo Province,7,AO,Angola,-12.30261000,15.43358000,Q1052090
609,Huambo,213,HUA,Huambo Province,7,AO,Angola,-12.77611000,15.73917000,Q207322
614,Longonjo,213,HUA,Huambo Province,7,AO,Angola,-12.90667000,15.25333000,Q2342492
592,Caconda,225,HUI,Huíla Province,7,AO,Angola,-13.73333000,15.06667000,Q459360
593,Caluquembe,225,HUI,Huíla Province,7,AO,Angola,-13.92093000,14.53476000,Q459360
602,Chibia,225,HUI,Huíla Province,7,AO,Angola,-15.23657000,13.88468000,Q1052090
603,Chicomba,225,HUI,Huíla Province,7,AO,Angola,-14.30788000,14.98672000,Q1052090
604,Chipindo,225,HUI,Huíla Province,7,AO,Angola,-13.86830000,15.73277000,Q1052090
607,Cuvango,225,HUI,Huíla Province,7,AO,Angola,-14.27693000,16.31475000,Q843980
608,Gambos,225,HUI,Huíla Province,7,AO,Angola,-15.80926000,14.07661000,Q843980
610,Humpata,225,HUI,Huíla Province,7,AO,Angola,-15.07250000,13.36771000,Q207322
612,Jamba,225,HUI,Huíla Province,7,AO,Angola,-14.76294000,15.83493000,Q291729
617,Lubango,225,HUI,Huíla Province,7,AO,Angola,-14.91717000,13.49250000,Q122044
623,Matala,225,HUI,Huíla Province,7,AO,Angola,-15.23967000,15.17246000,Q621001
630,Quilengues,225,HUI,Huíla Province,7,AO,Angola,-13.99213000,13.76705000,Q602772
631,Quipungo,225,HUI,Huíla Province,7,AO,Angola,-15.12203000,14.55953000,Q602772
589,Belas,222,LUA,Luanda Province,7,AO,Angola,-9.06875000,13.16072000,Q727233
611,Icolo e Bengo,222,LUA,Luanda Province,7,AO,Angola,-9.24191000,13.73549000,Q291729
615,Luanda,222,LUA,Luanda Province,7,AO,Angola,-8.83682000,13.23432000,Q3897
618,Lucapa,223,LNO,Lunda Norte Province,7,AO,Angola,-8.68337000,20.27045000,Q620866
599,Cazaji,220,LSU,Lunda Sul Province,7,AO,Angola,-11.06715000,20.70148000,Q956745
632,Saurimo,220,LSU,Lunda Sul Province,7,AO,Angola,-9.66078000,20.39155000,Q635017
622,Malanje,227,MAL,Malanje Province,7,AO,Angola,-9.54015000,16.34096000,Q621001
621,Léua,219,MOX,Moxico Province,7,AO,Angola,-11.65000000,20.45000000,Q618643
616,Luau,219,MOX,Moxico Province,7,AO,Angola,-10.70727000,22.22466000,Q1872804
619,Luena,219,MOX,Moxico Province,7,AO,Angola,-11.78333000,19.91667000,Q618643
620,Lumeje,219,MOX,Moxico Province,7,AO,Angola,-11.55000000,20.78333000,Q618643
636,Uíge,224,UIG,Uíge Province,7,AO,Angola,-7.60874000,15.06131000,Q911191
624,Mbanza Congo,214,ZAI,Zaire Province,7,AO,Angola,-6.26703000,14.24010000,Q500189
626,N'zeto,214,ZAI,Zaire Province,7,AO,Angola,-7.23116000,12.86660000,Q2351452
633,Soio,214,ZAI,Zaire Province,7,AO,Angola,-6.13490000,12.36894000,Q1015108
144,Codrington,3708,10,Barbuda,10,AG,Antigua And Barbuda,17.63333000,-61.83333000,Q1024679
148,Piggotts,3709,03,Saint George Parish,10,AG,Antigua And Barbuda,17.11667000,-61.80000000,Q1771704
149,Potters Village,3706,04,Saint John Parish,10,AG,Antigua And Barbuda,17.11337000,-61.81962000,Q1771587
150,Saint John’s,3706,04,Saint John Parish,10,AG,Antigua And Barbuda,17.12096000,-61.84329000,Q36262
143,Bolands,3707,05,Saint Mary Parish,10,AG,Antigua And Barbuda,17.06565000,-61.87466000,Q1771701
145,Falmouth,3705,06,Saint Paul Parish,10,AG,Antigua And Barbuda,17.02741000,-61.78136000,Q3299460
146,Liberta,3705,06,Saint Paul Parish,10,AG,Antigua And Barbuda,17.04141000,-61.79052000,Q1771710
142,All Saints,3704,07,Saint Peter Parish,10,AG,Antigua And Barbuda,17.06671000,-61.79303000,Q1771715
147,Parham,3704,07,Saint Peter Parish,10,AG,Antigua And Barbuda,17.09682000,-61.77046000,Q376195
682,Balvanera,3656,B,Buenos Aires,11,AR,Argentina,-34.61032000,-58.39766000,Q805848
683,Barracas,3656,B,Buenos Aires,11,AR,Argentina,-34.64966000,-58.38341000,Q680964
687,Belgrano,3656,B,Buenos Aires,11,AR,Argentina,-34.56270000,-58.45829000,Q815569
697,Boedo,3656,B,Buenos Aires,11,AR,Argentina,-34.63333000,-58.41667000,Q890147
704,Buenos Aires,3656,B,Buenos Aires,11,AR,Argentina,-34.61315000,-58.37723000,Q1486
773,Colegiales,3656,B,Buenos Aires,11,AR,Argentina,-34.57365000,-58.44924000,Q106063
1380,Retiro,3656,B,Buenos Aires,11,AR,Argentina,-34.58333000,-58.38333000,Q44206
1561,Villa Lugano,3656,B,Buenos Aires,11,AR,Argentina,-34.67907000,-58.47263000,Q9093939
1570,Villa Ortúzar,3656,B,Buenos Aires,11,AR,Argentina,-34.57973000,-58.46829000,Q1016067
1576,Villa Santa Rita,3656,B,Buenos Aires,11,AR,Argentina,-34.61082000,-58.48100000,Q10391476
659,Ancasti,3647,K,Catamarca,11,AR,Argentina,-28.81247000,-65.50145000,Q21845580
661,Andalgalá,3647,K,Catamarca,11,AR,Argentina,-27.58185000,-66.31626000,Q489679
663,Antofagasta de la Sierra,3647,K,Catamarca,11,AR,Argentina,-26.05940000,-67.40636000,Q2536371
726,Capayán,3647,K,Catamarca,11,AR,Argentina,-28.77436000,-66.04749000,Q21844014
824,Departamento de Ambato,3647,K,Catamarca,11,AR,Argentina,-28.00000000,-65.91667000,Q688734
825,Departamento de Ancasti,3647,K,Catamarca,11,AR,Argentina,-29.00000000,-65.50000000,Q760261
826,Departamento de Andalgalá,3647,K,Catamarca,11,AR,Argentina,-27.58333000,-66.46667000,Q1190227
829,Departamento de Antofagasta de la Sierra,3647,K,Catamarca,11,AR,Argentina,-26.00000000,-67.58333000,Q1190229
846,Departamento de Capayán,3647,K,Catamarca,11,AR,Argentina,-28.83333000,-66.00000000,Q858107
849,Departamento de Capital,3647,K,Catamarca,11,AR,Argentina,-28.41667000,-65.80000000,Q858182
877,Departamento de El Alto,3647,K,Catamarca,11,AR,Argentina,-28.41667000,-65.41667000,Q899638
884,Departamento de Fray Mamerto Esquiú,3647,K,Catamarca,11,AR,Argentina,-28.30000000,-65.75000000,Q775145
918,Departamento de La Paz,3647,K,Catamarca,11,AR,Argentina,-29.25000000,-65.25000000,Q1127089
959,Departamento de Pomán,3647,K,Catamarca,11,AR,Argentina,-28.25000000,-66.41667000,Q1190958
1006,Departamento de Santa María,3647,K,Catamarca,11,AR,Argentina,-26.66667000,-66.41667000,Q1080656
1007,Departamento de Santa Rosa,3647,K,Catamarca,11,AR,Argentina,-28.08333000,-65.25000000,Q638965
1020,Departamento de Tinogasta,3647,K,Catamarca,11,AR,Argentina,-27.50000000,-68.00000000,Q1080210
1030,Departamento de Valle Viejo,3647,K,Catamarca,11,AR,Argentina,-28.58333000,-65.75000000,Q288586
1060,El Rodeo,3647,K,Catamarca,11,AR,Argentina,-28.21518000,-65.87420000,Q21842213
1078,Fiambalá,3647,K,Catamarca,11,AR,Argentina,-27.67225000,-67.61870000,Q2613214
1142,Hualfín,3647,K,Catamarca,11,AR,Argentina,-27.22896000,-66.83131000,Q1774287
1145,Huillapima,3647,K,Catamarca,11,AR,Argentina,-28.72533000,-65.97870000,Q81653
1149,Icaño,3647,K,Catamarca,11,AR,Argentina,-28.91934000,-65.32817000,Q3791626
1197,La Puerta de San José,3647,K,Catamarca,11,AR,Argentina,-27.55000000,-67.01667000,Q1774215
1239,Londres,3647,K,Catamarca,11,AR,Argentina,-27.71439000,-67.13349000,Q930973
1243,Los Altos,3647,K,Catamarca,11,AR,Argentina,-28.04845000,-65.49945000,Q6681893
1256,Los Varela,3647,K,Catamarca,11,AR,Argentina,-27.93003000,-65.87153000,Q1774269
1294,Mutquín,3647,K,Catamarca,11,AR,Argentina,-28.32104000,-66.14253000,Q2387512
1340,Pomán,3647,K,Catamarca,11,AR,Argentina,-28.39455000,-66.22052000,Q2437304
1350,Puerta de Corral Quemado,3647,K,Catamarca,11,AR,Argentina,-27.23000000,-66.93635000,Q1774277
1378,Recreo,3647,K,Catamarca,11,AR,Argentina,-29.28184000,-65.06096000,Q766923
1408,San Antonio,3647,K,Catamarca,11,AR,Argentina,-28.01009000,-65.70874000,Q7413304
1421,San Fernando del Valle de Catamarca,3647,K,Catamarca,11,AR,Argentina,-28.46957000,-65.78524000,Q44162
1464,Santa María,3647,K,Catamarca,11,AR,Argentina,-26.69547000,-66.04732000,Q1012407
1505,Tinogasta,3647,K,Catamarca,11,AR,Argentina,-28.06319000,-67.56488000,Q81563
677,Aviá Terai,3640,H,Chaco,11,AR,Argentina,-26.68532000,-60.72920000,Q528399
685,Barranqueras,3640,H,Chaco,11,AR,Argentina,-27.48132000,-58.93925000,Q2885504
686,Basail,3640,H,Chaco,11,AR,Argentina,-27.88539000,-59.28245000,Q1578997
719,Campo Largo,3640,H,Chaco,11,AR,Argentina,-26.80077000,-60.84215000,Q21843910
730,Capitán Solari,3640,H,Chaco,11,AR,Argentina,-26.80215000,-59.56089000,Q1579019
737,Castelli,3640,H,Chaco,11,AR,Argentina,-25.94679000,-60.61947000,Q568624
753,Charadai,3640,H,Chaco,11,AR,Argentina,-27.65503000,-59.86291000,Q1578855
754,Charata,3640,H,Chaco,11,AR,Argentina,-27.21438000,-61.18795000,Q1578300
765,Chorotis,3640,H,Chaco,11,AR,Argentina,-27.91578000,-61.39982000,Q1579594
767,Ciervo Petiso,3640,H,Chaco,11,AR,Argentina,-26.58041000,-59.63094000,Q5119715
776,Colonia Benítez,3640,H,Chaco,11,AR,Argentina,-27.33099000,-58.94622000,Q1579162
778,Colonia Elisa,3640,H,Chaco,11,AR,Argentina,-26.93041000,-59.51861000,Q1579265
782,Colonias Unidas,3640,H,Chaco,11,AR,Argentina,-26.69825000,-59.63154000,Q1579067
791,Concepción del Bermejo,3640,H,Chaco,11,AR,Argentina,-26.59926000,-60.94617000,Q785491
799,Coronel Du Graty,3640,H,Chaco,11,AR,Argentina,-27.68038000,-60.91462000,Q1657891
804,Corzuela,3640,H,Chaco,11,AR,Argentina,-26.95374000,-60.96928000,Q1135953
807,Coté-Lai,3640,H,Chaco,11,AR,Argentina,-27.50000000,-59.60000000,Q21829400
822,Departamento de Almirante Brown,3640,H,Chaco,11,AR,Argentina,-25.81662000,-61.45576000,Q1190331
837,Departamento de Bermejo,3640,H,Chaco,11,AR,Argentina,-27.00000000,-58.66667000,Q792464
865,Departamento de Comandante Fernández,3640,H,Chaco,11,AR,Argentina,-26.83333000,-60.50000000,Q868409
875,Departamento de Doce de Octubre,3640,H,Chaco,11,AR,Argentina,-27.41667000,-61.33333000,Q899638
876,Departamento de Dos de Abril,3640,H,Chaco,11,AR,Argentina,-27.60932000,-61.34473000,Q899638
890,Departamento de General Donovan,3640,H,Chaco,11,AR,Argentina,-27.16667000,-59.33333000,Q922325
892,Departamento de General Güemes,3640,H,Chaco,11,AR,Argentina,-25.16667000,-61.41667000,Q922325
909,Departamento de Independencia,3640,H,Chaco,11,AR,Argentina,-26.66667000,-60.66667000,Q731983
928,Departamento de Libertad,3640,H,Chaco,11,AR,Argentina,-27.33333000,-59.33333000,Q279489
937,Departamento de Maipú,3640,H,Chaco,11,AR,Argentina,-26.33333000,-60.41667000,Q588032
950,Departamento de Nueve de Julio,3640,H,Chaco,11,AR,Argentina,-26.95331000,-61.27627000,Q770031
954,Departamento de O’Higgins,3640,H,Chaco,11,AR,Argentina,-27.25000000,-60.66667000,Q770031
960,Departamento de Presidencia de la Plaza,3640,H,Chaco,11,AR,Argentina,-27.00000000,-59.75000000,Q1190958
962,Departamento de Quitilipi,3640,H,Chaco,11,AR,Argentina,-26.66667000,-60.16667000,Q1063416
986,Departamento de San Fernando,3640,H,Chaco,11,AR,Argentina,-27.66667000,-59.16667000,Q1063341
994,Departamento de San Lorenzo,3640,H,Chaco,11,AR,Argentina,-27.33333000,-60.41667000,Q1191103
1010,Departamento de Sargento Cabral,3640,H,Chaco,11,AR,Argentina,-26.83333000,-59.50000000,Q1063313
1017,Departamento de Tapenagá,3640,H,Chaco,11,AR,Argentina,-27.50000000,-59.75000000,Q1063095
1081,Fontana,3640,H,Chaco,11,AR,Argentina,-27.41813000,-59.02392000,Q923414
1088,Gancedo,3640,H,Chaco,11,AR,Argentina,-27.49038000,-61.67571000,Q1578967
1105,General José de San Martín,3640,H,Chaco,11,AR,Argentina,-26.53743000,-59.34158000,Q2220740
1109,General Pinedo,3640,H,Chaco,11,AR,Argentina,-27.31667000,-61.28333000,Q611504
1114,General Vedia,3640,H,Chaco,11,AR,Argentina,-26.93382000,-58.66040000,Q1656049
1135,Hermoso Campo,3640,H,Chaco,11,AR,Argentina,-27.60816000,-61.34441000,Q751497
1181,La Clotilde,3640,H,Chaco,11,AR,Argentina,-27.13333000,-60.66667000,Q1656083
1186,La Eduvigis,3640,H,Chaco,11,AR,Argentina,-26.83607000,-59.06211000,Q1657326
1187,La Escondida,3640,H,Chaco,11,AR,Argentina,-27.10724000,-59.44784000,Q1656012
1191,La Leonesa,3640,H,Chaco,11,AR,Argentina,-27.03786000,-58.70347000,Q1657423
1201,La Tigra,3640,H,Chaco,11,AR,Argentina,-27.10996000,-60.58719000,Q21838634
1203,La Verde,3640,H,Chaco,11,AR,Argentina,-27.12634000,-59.37352000,Q1657869
1208,Laguna Limpia,3640,H,Chaco,11,AR,Argentina,-26.49565000,-59.68083000,Q1656138
1213,Lapachito,3640,H,Chaco,11,AR,Argentina,-27.15997000,-59.38605000,Q1657314
1216,Las Breñas,3640,H,Chaco,11,AR,Argentina,-27.08966000,-61.08161000,Q1017552
1218,Las Garcitas,3640,H,Chaco,11,AR,Argentina,-26.61802000,-59.80135000,Q1657855
1249,Los Frentones,3640,H,Chaco,11,AR,Argentina,-26.40770000,-61.41367000,Q925007
1260,Machagai,3640,H,Chaco,11,AR,Argentina,-26.92614000,-60.04955000,Q1579325
1264,Makallé,3640,H,Chaco,11,AR,Argentina,-27.20687000,-59.28696000,Q602345
1270,Margarita Belén,3640,H,Chaco,11,AR,Argentina,-27.26160000,-58.97219000,Q383019
1296,Napenay,3640,H,Chaco,11,AR,Argentina,-26.73333000,-60.61667000,Q1579131
1314,Pampa Almirón,3640,H,Chaco,11,AR,Argentina,-26.70039000,-59.12331000,Q1656116
1316,Pampa del Indio,3640,H,Chaco,11,AR,Argentina,-26.04982000,-59.93728000,Q1656045
1317,Pampa del Infierno,3640,H,Chaco,11,AR,Argentina,-26.50517000,-61.17436000,Q1578938
1347,Presidencia de la Plaza,3640,H,Chaco,11,AR,Argentina,-27.00147000,-59.84243000,Q1656867
1345,Presidencia Roca,3640,H,Chaco,11,AR,Argentina,-26.14090000,-59.59541000,Q1657374
1346,Presidencia Roque Sáenz Peña,3640,H,Chaco,11,AR,Argentina,-26.78522000,-60.43876000,Q1656936
1351,Puerto Bermejo,3640,H,Chaco,11,AR,Argentina,-26.92739000,-58.50917000,Q1656125
1363,Puerto Tirol,3640,H,Chaco,11,AR,Argentina,-27.37218000,-59.08206000,Q1003738
1364,Puerto Vilelas,3640,H,Chaco,11,AR,Argentina,-27.51414000,-58.93906000,Q1656101
1370,Quitilipi,3640,H,Chaco,11,AR,Argentina,-26.86913000,-60.21683000,Q1656947
1379,Resistencia,3640,H,Chaco,11,AR,Argentina,-27.46056000,-58.98389000,Q44206
1405,Samuhú,3640,H,Chaco,11,AR,Argentina,-27.52116000,-60.39167000,Q7413040
1414,San Bernardo,3640,H,Chaco,11,AR,Argentina,-27.28782000,-60.71252000,Q967629
1471,Santa Sylvina,3640,H,Chaco,11,AR,Argentina,-27.83261000,-61.13747000,Q1015553
1493,Taco Pozo,3640,H,Chaco,11,AR,Argentina,-25.61557000,-63.26708000,Q1579288
1515,Tres Isletas,3640,H,Chaco,11,AR,Argentina,-26.34067000,-60.43207000,Q169222
1586,Villa Ángela,3640,H,Chaco,11,AR,Argentina,-27.57383000,-60.71526000,Q1657303
1542,Villa Berthet,3640,H,Chaco,11,AR,Argentina,-27.29174000,-60.41263000,Q1657333
655,Alto Río Senguer,3651,U,Chubut,11,AR,Argentina,-45.04105000,-70.81982000,Q178740
715,Camarones,3651,U,Chubut,11,AR,Argentina,-44.79709000,-65.70994000,Q972040
787,Comodoro Rivadavia,3651,U,Chubut,11,AR,Argentina,-45.86413000,-67.49656000,Q221921
839,Departamento de Biedma,3651,U,Chubut,11,AR,Argentina,-42.41667000,-65.00000000,Q573042
873,Departamento de Cushamen,3651,U,Chubut,11,AR,Argentina,-42.50000000,-70.83333000,Q899638
880,Departamento de Escalante,3651,U,Chubut,11,AR,Argentina,-45.33333000,-67.33333000,Q583893
883,Departamento de Florentino Ameghino,3651,U,Chubut,11,AR,Argentina,-44.41667000,-66.16667000,Q991357
885,Departamento de Futaleufú,3651,U,Chubut,11,AR,Argentina,-43.08333000,-71.41667000,Q775145
886,Departamento de Gaimán,3651,U,Chubut,11,AR,Argentina,-43.33333000,-66.33333000,Q775145
887,Departamento de Gastre,3651,U,Chubut,11,AR,Argentina,-42.83333000,-68.66667000,Q775145
923,Departamento de Languiñeo,3651,U,Chubut,11,AR,Argentina,-43.33333000,-70.66667000,Q372333
949,Departamento de Mártires,3651,U,Chubut,11,AR,Argentina,-43.83333000,-67.16667000,Q770031
956,Departamento de Paso de Indios,3651,U,Chubut,11,AR,Argentina,-44.00000000,-68.83333000,Q770031
963,Departamento de Rawson,3651,U,Chubut,11,AR,Argentina,-43.12342000,-65.10179000,Q1088518
979,Departamento de Río Senguerr,3651,U,Chubut,11,AR,Argentina,-45.33333000,-70.83333000,Q1063078
1012,Departamento de Sarmiento,3651,U,Chubut,11,AR,Argentina,-45.33333000,-69.00000000,Q1063313
1018,Departamento de Tehuelches,3651,U,Chubut,11,AR,Argentina,-44.22132000,-70.25260000,Q980641
1019,Departamento de Telsen,3651,U,Chubut,11,AR,Argentina,-42.41667000,-67.16667000,Q290328
1042,Dolavón,3651,U,Chubut,11,AR,Argentina,-43.30684000,-65.70651000,Q106043
1058,El Maitén,3651,U,Chubut,11,AR,Argentina,-42.04924000,-71.16693000,Q106050
1070,Esquel,3651,U,Chubut,11,AR,Argentina,-42.91147000,-71.31947000,Q81656
1087,Gaimán,3651,U,Chubut,11,AR,Argentina,-43.28970000,-65.49290000,Q106055
1092,Gastre,3651,U,Chubut,11,AR,Argentina,-42.26186000,-69.22112000,Q1016275
1115,Gobernador Costa,3651,U,Chubut,11,AR,Argentina,-44.04992000,-70.59798000,Q1773893
1141,Hoyo de Epuyén,3651,U,Chubut,11,AR,Argentina,-42.07189000,-71.50811000,Q3720934
1169,José de San Martín,3651,U,Chubut,11,AR,Argentina,-44.05032000,-70.46967000,Q1015513
1206,Lago Puelo,3651,U,Chubut,11,AR,Argentina,-42.06684000,-71.60384000,Q3825767
1229,Las Plumas,3651,U,Chubut,11,AR,Argentina,-43.72058000,-67.28319000,Q1530166
1359,Puerto Madryn,3651,U,Chubut,11,AR,Argentina,-42.76920000,-65.03851000,Q748028
1371,Rada Tilly,3651,U,Chubut,11,AR,Argentina,-45.92462000,-67.55424000,Q998325
1374,Rawson,3651,U,Chubut,11,AR,Argentina,-43.30016000,-65.10228000,Q44208
1393,Río Mayo,3651,U,Chubut,11,AR,Argentina,-45.68573000,-70.25797000,Q21833451
1394,Río Pico,3651,U,Chubut,11,AR,Argentina,-44.17905000,-71.36847000,Q1774299
1477,Sarmiento,3651,U,Chubut,11,AR,Argentina,-45.58815000,-69.06996000,Q106034
1499,Tecka,3651,U,Chubut,11,AR,Argentina,-43.49489000,-70.81020000,Q2259996
1512,Trelew,3651,U,Chubut,11,AR,Argentina,-43.24895000,-65.30505000,Q1009276
1516,Trevelin,3651,U,Chubut,11,AR,Argentina,-43.08580000,-71.46386000,Q2368288
639,Achiras,3642,X,Córdoba,11,AR,Argentina,-33.17538000,-64.99331000,Q8187413
640,Adelia María,3642,X,Córdoba,11,AR,Argentina,-33.63152000,-64.02097000,Q5682817
641,Agua de Oro,3642,X,Córdoba,11,AR,Argentina,-31.06661000,-64.30017000,Q2215108
647,Alejandro Roca,3642,X,Córdoba,11,AR,Argentina,-33.35369000,-63.71849000,Q8194200
648,Alejo Ledesma,3642,X,Córdoba,11,AR,Argentina,-33.60643000,-62.62304000,Q8194316
651,Almafuerte,3642,X,Córdoba,11,AR,Argentina,-32.19296000,-64.25559000,Q1935889
653,Alta Gracia,3642,X,Córdoba,11,AR,Argentina,-31.65292000,-64.42826000,Q48293
656,Altos de Chipión,3642,X,Córdoba,11,AR,Argentina,-30.95590000,-62.33727000,Q3613347
668,Arias,3642,X,Córdoba,11,AR,Argentina,-33.64411000,-62.40272000,Q2693020
671,Arroyito,3642,X,Córdoba,11,AR,Argentina,-31.42022000,-63.05002000,Q671062
672,Arroyo Cabral,3642,X,Córdoba,11,AR,Argentina,-32.49119000,-63.40126000,Q21845813
681,Balnearia,3642,X,Córdoba,11,AR,Argentina,-31.00880000,-62.66733000,Q8240830
688,Bell Ville,3642,X,Córdoba,11,AR,Argentina,-32.62591000,-62.68873000,Q284308
695,Berrotarán,3642,X,Córdoba,11,AR,Argentina,-32.45100000,-64.38867000,Q8247020
701,Brinkmann,3642,X,Córdoba,11,AR,Argentina,-30.86589000,-62.03742000,Q17297395
702,Buchardo,3642,X,Córdoba,11,AR,Argentina,-34.72263000,-63.50920000,Q8253269
716,Camilo Aldao,3642,X,Córdoba,11,AR,Argentina,-33.12745000,-62.09453000,Q2128078
744,Cañada de Luque,3642,X,Córdoba,11,AR,Argentina,-30.73341000,-63.72375000,Q8343231
723,Canals,3642,X,Córdoba,11,AR,Argentina,-33.56542000,-62.88927000,Q2594504
727,Capilla del Monte,3642,X,Córdoba,11,AR,Argentina,-30.86088000,-64.52515000,Q1020576
733,Carnerillo,3642,X,Córdoba,11,AR,Argentina,-32.91371000,-64.02175000,Q8338730
734,Carrilobo,3642,X,Córdoba,11,AR,Argentina,-31.87296000,-63.11715000,Q8341370
742,Cavanagh,3642,X,Córdoba,11,AR,Argentina,-33.47606000,-62.33888000,Q8342984
755,Charras,3642,X,Córdoba,11,AR,Argentina,-33.02400000,-64.04719000,Q21844653
757,Chazón,3642,X,Córdoba,11,AR,Argentina,-33.07872000,-63.27657000,Q8345116
769,Cintra,3642,X,Córdoba,11,AR,Argentina,-32.30673000,-62.65214000,Q21842797
780,Colonia La Tordilla,3642,X,Córdoba,11,AR,Argentina,-31.23746000,-63.06134000,Q21842946
781,Colonia San Bartolomé,3642,X,Córdoba,11,AR,Argentina,-31.52780000,-62.72436000,Q5777842
815,Córdoba,3642,X,Córdoba,11,AR,Argentina,-31.41350000,-64.18105000,Q44210
797,Coronel Baigorria,3642,X,Córdoba,11,AR,Argentina,-32.84770000,-64.36107000,Q8351097
800,Coronel Moldes,3642,X,Córdoba,11,AR,Argentina,-33.62270000,-64.59711000,Q21841360
801,Corral de Bustos,3642,X,Córdoba,11,AR,Argentina,-33.28205000,-62.18463000,Q5172720
802,Corralito,3642,X,Córdoba,11,AR,Argentina,-32.02462000,-64.19216000,Q21841392
805,Cosquín,3642,X,Córdoba,11,AR,Argentina,-31.24508000,-64.46563000,Q48290
806,Costa Sacate,3642,X,Córdoba,11,AR,Argentina,-31.64770000,-63.75935000,Q5574326
809,Cruz Alta,3642,X,Córdoba,11,AR,Argentina,-33.00887000,-61.80746000,Q21841539
811,Cruz del Eje,3642,X,Córdoba,11,AR,Argentina,-30.72644000,-64.80387000,Q1016873
812,Cuesta Blanca,3642,X,Córdoba,11,AR,Argentina,-31.48658000,-64.57150000,Q637219
816,Dalmacio Vélez Sársfield,3642,X,Córdoba,11,AR,Argentina,-32.61072000,-63.58038000,Q21841723
1039,Deán Funes,3642,X,Córdoba,11,AR,Argentina,-30.42036000,-64.34984000,Q525817
818,Del Campillo,3642,X,Córdoba,11,AR,Argentina,-34.37659000,-64.49504000,Q8354470
842,Departamento de Calamuchita,3642,X,Córdoba,11,AR,Argentina,-32.25000000,-64.58333000,Q665082
864,Departamento de Colón,3642,X,Córdoba,11,AR,Argentina,-31.16667000,-64.16667000,Q868409
871,Departamento de Cruz del Eje,3642,X,Córdoba,11,AR,Argentina,-30.75000000,-65.00000000,Q635957
896,Departamento de General Roca,3642,X,Córdoba,11,AR,Argentina,-34.66667000,-64.25000000,Q368679
897,Departamento de General San Martín,3642,X,Córdoba,11,AR,Argentina,-32.50000000,-63.33333000,Q368679
914,Departamento de Juárez Celman,3642,X,Córdoba,11,AR,Argentina,-33.33333000,-63.66667000,Q511702
939,Departamento de Marcos Juárez,3642,X,Córdoba,11,AR,Argentina,-33.00000000,-62.25000000,Q784895
943,Departamento de Minas,3642,X,Córdoba,11,AR,Argentina,-31.00000000,-65.33333000,Q591241
961,Departamento de Presidente Roque Sáenz Peña,3642,X,Córdoba,11,AR,Argentina,-34.25000000,-63.50000000,Q1063416
974,Departamento de Río Cuarto,3642,X,Córdoba,11,AR,Argentina,-33.33333000,-64.50000000,Q1063409
976,Departamento de Río Primero,3642,X,Córdoba,11,AR,Argentina,-31.08333000,-63.50000000,Q1063403
977,Departamento de Río Seco,3642,X,Córdoba,11,AR,Argentina,-30.08333000,-63.00000000,Q531018
978,Departamento de Río Segundo,3642,X,Córdoba,11,AR,Argentina,-31.75000000,-63.50000000,Q1063078
981,Departamento de San Alberto,3642,X,Córdoba,11,AR,Argentina,-31.75000000,-65.25000000,Q633783
990,Departamento de San Javier,3642,X,Córdoba,11,AR,Argentina,-32.08333000,-65.16667000,Q777079
991,Departamento de San Justo,3642,X,Córdoba,11,AR,Argentina,-31.33333000,-62.66667000,Q950820
1016,Departamento de Sobremonte,3642,X,Córdoba,11,AR,Argentina,-29.66667000,-64.08333000,Q1063095
1022,Departamento de Totoral,3642,X,Córdoba,11,AR,Argentina,-30.83333000,-63.91667000,Q1063056
1024,Departamento de Tulumba,3642,X,Córdoba,11,AR,Argentina,-30.25000000,-63.91667000,Q972349
1029,Departamento de Unión,3642,X,Córdoba,11,AR,Argentina,-32.83333000,-62.75000000,Q2317932
1037,Despeñaderos,3642,X,Córdoba,11,AR,Argentina,-31.81626000,-64.28989000,Q5804390
1038,Devoto,3642,X,Córdoba,11,AR,Argentina,-31.40431000,-62.30634000,Q21841792
1049,El Arañado,3642,X,Córdoba,11,AR,Argentina,-31.74120000,-62.89322000,Q5820863
1063,El Tío,3642,X,Córdoba,11,AR,Argentina,-31.38357000,-62.82938000,Q21842250
1064,Elena,3642,X,Córdoba,11,AR,Argentina,-32.57205000,-64.39481000,Q21842056
1066,Embalse,3642,X,Córdoba,11,AR,Argentina,-32.18000000,-64.41809000,Q1011693
1073,Etruria,3642,X,Córdoba,11,AR,Argentina,-32.94008000,-63.24660000,Q1442288
1096,General Baldissera,3642,X,Córdoba,11,AR,Argentina,-33.12246000,-62.30630000,Q932486
1097,General Cabrera,3642,X,Córdoba,11,AR,Argentina,-32.81313000,-63.87243000,Q973090
1106,General Levalle,3642,X,Córdoba,11,AR,Argentina,-34.01472000,-63.92413000,Q938803
1111,General Roca,3642,X,Córdoba,11,AR,Argentina,-32.73196000,-61.91599000,Q21839890
1129,Guatimozín,3642,X,Córdoba,11,AR,Argentina,-33.46149000,-62.43844000,Q21840259
1136,Hernando,3642,X,Córdoba,11,AR,Argentina,-32.42657000,-63.73333000,Q2648980
1143,Huanchillas,3642,X,Córdoba,11,AR,Argentina,-33.66653000,-63.63701000,Q21840489
1144,Huerta Grande,3642,X,Córdoba,11,AR,Argentina,-31.07524000,-64.49063000,Q21840531
1146,Huinca Renancó,3642,X,Córdoba,11,AR,Argentina,-34.84038000,-64.37580000,Q2638654
1150,Idiazábal,3642,X,Córdoba,11,AR,Argentina,-32.81411000,-63.03252000,Q21840564
1156,Inriville,3642,X,Córdoba,11,AR,Argentina,-32.94424000,-62.23028000,Q9008605
1159,Isla Verde,3642,X,Córdoba,11,AR,Argentina,-33.24104000,-62.40297000,Q21840678
1160,Italó,3642,X,Córdoba,11,AR,Argentina,-34.79237000,-63.78199000,Q21840687
1165,James Craik,3642,X,Córdoba,11,AR,Argentina,-32.16120000,-63.46688000,Q2732721
1167,Jesús María,3642,X,Córdoba,11,AR,Argentina,-30.98153000,-64.09424000,Q48288
1173,Justiniano Posse,3642,X,Córdoba,11,AR,Argentina,-32.88411000,-62.67788000,Q524744
1178,La Calera,3642,X,Córdoba,11,AR,Argentina,-31.34377000,-64.33529000,Q21840871
1179,La Carlota,3642,X,Córdoba,11,AR,Argentina,-33.41993000,-63.29769000,Q2336157
1180,La Cesira,3642,X,Córdoba,11,AR,Argentina,-33.95115000,-62.97238000,Q10315018
1185,La Cumbre,3642,X,Córdoba,11,AR,Argentina,-30.98201000,-64.49139000,Q1798756
1188,La Falda,3642,X,Córdoba,11,AR,Argentina,-31.08841000,-64.48987000,Q48294
1189,La Francia,3642,X,Córdoba,11,AR,Argentina,-31.40675000,-62.63396000,Q9018548
1190,La Granja,3642,X,Córdoba,11,AR,Argentina,-31.00919000,-64.26869000,Q21840995
1194,La Para,3642,X,Córdoba,11,AR,Argentina,-30.89416000,-63.00107000,Q977211
1196,La Playosa,3642,X,Córdoba,11,AR,Argentina,-32.10002000,-63.03088000,Q9018831
1204,Laborde,3642,X,Córdoba,11,AR,Argentina,-33.15319000,-62.85661000,Q850581
1205,Laboulaye,3642,X,Córdoba,11,AR,Argentina,-34.12662000,-63.39119000,Q2520086
1207,Laguna Larga,3642,X,Córdoba,11,AR,Argentina,-31.77652000,-63.80104000,Q21838086
1215,Las Acequias,3642,X,Córdoba,11,AR,Argentina,-33.28155000,-63.97610000,Q9020363
1221,Las Higueras,3642,X,Córdoba,11,AR,Argentina,-33.09231000,-64.28899000,Q21838493
1222,Las Junturas,3642,X,Córdoba,11,AR,Argentina,-31.83125000,-63.45016000,Q9020468
1228,Las Perdices,3642,X,Córdoba,11,AR,Argentina,-32.69794000,-63.70634000,Q21838558
1232,Las Varas,3642,X,Córdoba,11,AR,Argentina,-31.80260000,-62.61655000,Q21838615
1233,Las Varillas,3642,X,Córdoba,11,AR,Argentina,-31.87208000,-62.71946000,Q10316445
1234,Leones,3642,X,Córdoba,11,AR,Argentina,-32.66174000,-62.29678000,Q21838780
1246,Los Cocos,3642,X,Córdoba,11,AR,Argentina,-30.92497000,-64.50207000,Q6682609
1248,Los Cóndores,3642,X,Córdoba,11,AR,Argentina,-32.31983000,-64.27751000,Q21839069
1254,Los Surgentes,3642,X,Córdoba,11,AR,Argentina,-32.98454000,-62.02191000,Q5487799
1266,Malagueño,3642,X,Córdoba,11,AR,Argentina,-31.46467000,-64.35840000,Q1886644
1267,Malvinas Argentinas,3642,X,Córdoba,11,AR,Argentina,-31.38194000,-64.05545000,Q503652
1269,Marcos Juárez,3642,X,Córdoba,11,AR,Argentina,-32.69780000,-62.10672000,Q1016881
1273,Marull,3642,X,Córdoba,11,AR,Argentina,-30.99471000,-62.82576000,Q2500565
1274,Mattaldi,3642,X,Córdoba,11,AR,Argentina,-34.48194000,-64.17255000,Q21837152
1277,Mendiolaza,3642,X,Córdoba,11,AR,Argentina,-31.26738000,-64.30087000,Q9031514
1282,Mina Clavero,3642,X,Córdoba,11,AR,Argentina,-31.72101000,-65.00619000,Q48348
1283,Miramar,3642,X,Córdoba,11,AR,Argentina,-30.91859000,-62.67814000,Q991707
1286,Monte Buey,3642,X,Córdoba,11,AR,Argentina,-32.91642000,-62.45669000,Q2506369
1288,Monte Cristo,3642,X,Córdoba,11,AR,Argentina,-31.34312000,-63.94437000,Q21837558
1289,Monte Maíz,3642,X,Córdoba,11,AR,Argentina,-33.20462000,-62.60085000,Q9034750
1292,Morrison,3642,X,Córdoba,11,AR,Argentina,-32.59480000,-62.83455000,Q21837657
1293,Morteros,3642,X,Córdoba,11,AR,Argentina,-30.71164000,-61.99862000,Q953723
1299,Noetinger,3642,X,Córdoba,11,AR,Argentina,-32.36597000,-62.31126000,Q525771
1305,Obispo Trejo,3642,X,Córdoba,11,AR,Argentina,-30.78128000,-63.41349000,Q3482948
1306,Oliva,3642,X,Córdoba,11,AR,Argentina,-32.04158000,-63.56978000,Q3111948
1307,Oncativo,3642,X,Córdoba,11,AR,Argentina,-31.91353000,-63.68201000,Q2106471
1308,Ordóñez,3642,X,Córdoba,11,AR,Argentina,-32.84057000,-62.86552000,Q10341376
1321,Pascanas,3642,X,Córdoba,11,AR,Argentina,-33.12550000,-63.04084000,Q7141762
1322,Pasco,3642,X,Córdoba,11,AR,Argentina,-32.74733000,-63.34232000,Q21835214
1333,Pilar,3642,X,Córdoba,11,AR,Argentina,-31.67890000,-63.87964000,Q7193761
1335,Piquillín,3642,X,Córdoba,11,AR,Argentina,-31.30158000,-63.75788000,Q6076671
1341,Porteña,3642,X,Córdoba,11,AR,Argentina,-31.01391000,-62.06650000,Q2071003
1343,Pozo del Molle,3642,X,Córdoba,11,AR,Argentina,-32.01860000,-62.91984000,Q3909741
1368,Quilino,3642,X,Córdoba,11,AR,Argentina,-30.21397000,-64.50063000,Q21836395
1388,Río Ceballos,3642,X,Córdoba,11,AR,Argentina,-31.16486000,-64.32241000,Q990605
1390,Río Cuarto,3642,X,Córdoba,11,AR,Argentina,-33.13067000,-64.34992000,Q983451
1395,Río Segundo,3642,X,Córdoba,11,AR,Argentina,-31.65260000,-63.90990000,Q1937588
1396,Río Tercero,3642,X,Córdoba,11,AR,Argentina,-32.17301000,-64.11405000,Q994351
1398,Sacanta,3642,X,Córdoba,11,AR,Argentina,-31.66300000,-63.04505000,Q9072519
1400,Saldán,3642,X,Córdoba,11,AR,Argentina,-31.30262000,-64.30700000,Q2214082
1401,Salsacate,3642,X,Córdoba,11,AR,Argentina,-31.31842000,-65.09003000,Q3111167
1402,Salsipuedes,3642,X,Córdoba,11,AR,Argentina,-31.13725000,-64.29589000,Q21833759
1404,Sampacho,3642,X,Córdoba,11,AR,Argentina,-33.38390000,-64.72211000,Q2982604
1406,San Agustín,3642,X,Córdoba,11,AR,Argentina,-31.97681000,-64.37400000,Q1863952
1410,San Antonio de Litín,3642,X,Córdoba,11,AR,Argentina,-32.21377000,-62.63237000,Q9073324
1412,San Basilio,3642,X,Córdoba,11,AR,Argentina,-33.49763000,-64.31495000,Q21833822
1415,San Carlos,3642,X,Córdoba,11,AR,Argentina,-31.17761000,-65.10245000,Q967364
1422,San Francisco,3642,X,Córdoba,11,AR,Argentina,-31.42797000,-62.08266000,Q949535
1424,San Francisco del Chañar,3642,X,Córdoba,11,AR,Argentina,-29.78830000,-63.94411000,Q3082023
1432,San José de la Dormida,3642,X,Córdoba,11,AR,Argentina,-30.35440000,-63.94871000,Q6119038
1457,Santa Eufemia,3642,X,Córdoba,11,AR,Argentina,-33.17659000,-63.28281000,Q10367830
1462,Santa Magdalena,3642,X,Córdoba,11,AR,Argentina,-34.51776000,-63.94409000,Q1709980
1467,Santa Rosa de Calamuchita,3642,X,Córdoba,11,AR,Argentina,-32.06905000,-64.53631000,Q15329
1468,Santa Rosa de Río Primero,3642,X,Córdoba,11,AR,Argentina,-31.15231000,-63.40191000,Q2765854
1472,Santiago Temple,3642,X,Córdoba,11,AR,Argentina,-31.38731000,-63.41821000,Q9074307
1479,Saturnino M. Laspiur,3642,X,Córdoba,11,AR,Argentina,-31.70287000,-62.48202000,Q21834167
1481,Sebastián Elcano,3642,X,Córdoba,11,AR,Argentina,-30.16105000,-63.59360000,Q21834217
1484,Serrano,3642,X,Córdoba,11,AR,Argentina,-34.46971000,-63.53842000,Q974361
1485,Serrezuela,3642,X,Córdoba,11,AR,Argentina,-30.63761000,-65.38692000,Q21834373
1497,Tancacha,3642,X,Córdoba,11,AR,Argentina,-32.24309000,-63.98070000,Q21831429
1502,Ticino,3642,X,Córdoba,11,AR,Argentina,-32.69350000,-63.43606000,Q21831530
1517,Tío Pujio,3642,X,Córdoba,11,AR,Argentina,-32.28790000,-63.35598000,Q6154571
1507,Toledo,3642,X,Córdoba,11,AR,Argentina,-31.55574000,-64.00947000,Q21831641
1519,Ucacha,3642,X,Córdoba,11,AR,Argentina,-33.03203000,-63.50666000,Q2628025
1521,Unquillo,3642,X,Córdoba,11,AR,Argentina,-31.23073000,-64.31615000,Q3120316
1526,Valle Hermoso,3642,X,Córdoba,11,AR,Argentina,-31.11732000,-64.48084000,Q9092406
1532,Viamonte,3642,X,Córdoba,11,AR,Argentina,-33.74647000,-63.09764000,Q21832337
1535,Vicuña Mackenna,3642,X,Córdoba,11,AR,Argentina,-33.91965000,-64.39215000,Q918656
1537,Villa Allende,3642,X,Córdoba,11,AR,Argentina,-31.29458000,-64.29538000,Q991758
1538,Villa Ascasubi,3642,X,Córdoba,11,AR,Argentina,-32.16351000,-63.89157000,Q1973813
1541,Villa Berna,3642,X,Córdoba,11,AR,Argentina,-31.91419000,-64.73249000,Q6162060
1544,Villa Carlos Paz,3642,X,Córdoba,11,AR,Argentina,-31.42414000,-64.49778000,Q48285
1546,Villa Concepción del Tío,3642,X,Córdoba,11,AR,Argentina,-31.32259000,-62.81354000,Q6162106
1548,Villa Cura Brochero,3642,X,Córdoba,11,AR,Argentina,-31.70578000,-65.01796000,Q1818180
1581,Villa de Soto,3642,X,Córdoba,11,AR,Argentina,-30.85523000,-64.99947000,Q9093952
1582,Villa del Dique,3642,X,Córdoba,11,AR,Argentina,-32.17667000,-64.45543000,Q2170454
1583,Villa del Rosario,3642,X,Córdoba,11,AR,Argentina,-31.55660000,-63.53452000,Q2314221
1585,Villa del Totoral,3642,X,Córdoba,11,AR,Argentina,-30.81667000,-63.71667000,Q2636994
1549,Villa Dolores,3642,X,Córdoba,11,AR,Argentina,-31.94585000,-65.18958000,Q374013
1552,Villa General Belgrano,3642,X,Córdoba,11,AR,Argentina,-31.97828000,-64.55627000,Q1013424
1556,Villa Giardino,3642,X,Córdoba,11,AR,Argentina,-31.03333000,-64.48333000,Q839912
1558,Villa Huidobro,3642,X,Córdoba,11,AR,Argentina,-34.83826000,-64.58686000,Q2730365
1560,Villa Las Rosas,3642,X,Córdoba,11,AR,Argentina,-31.95021000,-65.05354000,Q9093939
1563,Villa María,3642,X,Córdoba,11,AR,Argentina,-32.40751000,-63.24016000,Q2525523
1567,Villa Nueva,3642,X,Córdoba,11,AR,Argentina,-32.43293000,-63.24763000,Q6162298
1573,Villa Reducción,3642,X,Córdoba,11,AR,Argentina,-33.20105000,-63.86234000,Q11071461
1575,Villa Rumipal,3642,X,Córdoba,11,AR,Argentina,-32.18790000,-64.48027000,Q10391476
1578,Villa Tulumba,3642,X,Córdoba,11,AR,Argentina,-30.39552000,-64.12241000,Q3111419
1580,Villa Valeria,3642,X,Córdoba,11,AR,Argentina,-34.34093000,-64.92030000,Q9093936
1591,Wenceslao Escalante,3642,X,Córdoba,11,AR,Argentina,-33.17303000,-62.77078000,Q10393380
658,Alvear,3638,W,Corrientes,11,AR,Argentina,-29.09683000,-56.55043000,Q2658439
696,Berón de Astrada,3638,W,Corrientes,11,AR,Argentina,-27.55067000,-57.53460000,Q55856
698,Bonpland,3638,W,Corrientes,11,AR,Argentina,-29.81708000,-57.42974000,Q4942564
756,Chavarría,3638,W,Corrientes,11,AR,Argentina,-28.95489000,-58.57277000,Q5088475
789,Concepción,3638,W,Corrientes,11,AR,Argentina,-28.39175000,-57.88777000,Q1016869
803,Corrientes,3638,W,Corrientes,11,AR,Argentina,-27.46784000,-58.83440000,Q44211
810,Cruz de los Milagros,3638,W,Corrientes,11,AR,Argentina,-28.83646000,-59.00476000,Q21829416
813,Curuzú Cuatiá,3638,W,Corrientes,11,AR,Argentina,-29.79171000,-58.05460000,Q2364886
836,Departamento de Bella Vista,3638,W,Corrientes,11,AR,Argentina,-28.50000000,-58.83333000,Q792464
838,Departamento de Berón de Astrada,3638,W,Corrientes,11,AR,Argentina,-27.50000000,-57.66667000,Q573042
847,Departamento de Capital,3638,W,Corrientes,11,AR,Argentina,-27.50000000,-58.75000000,Q858107
866,Departamento de Concepción,3638,W,Corrientes,11,AR,Argentina,-28.33333000,-58.00000000,Q868674
872,Departamento de Curuzú Cuatiá,3638,W,Corrientes,11,AR,Argentina,-29.50000000,-58.50000000,Q899638
879,Departamento de Empedrado,3638,W,Corrientes,11,AR,Argentina,-27.83333000,-58.66667000,Q583893
881,Departamento de Esquina,3638,W,Corrientes,11,AR,Argentina,-30.00000000,-59.33333000,Q991357
888,Departamento de General Alvear,3638,W,Corrientes,11,AR,Argentina,-28.83333000,-56.50000000,Q691062
895,Departamento de General Paz,3638,W,Corrientes,11,AR,Argentina,-27.75000000,-57.83333000,Q368679
899,Departamento de Goya,3638,W,Corrientes,11,AR,Argentina,-29.50000000,-59.50000000,Q372623
912,Departamento de Itatí,3638,W,Corrientes,11,AR,Argentina,-27.33333000,-58.00000000,Q774170
913,Departamento de Ituzaingó,3638,W,Corrientes,11,AR,Argentina,-27.90085000,-56.86604000,Q511702
925,Departamento de Lavalle,3638,W,Corrientes,11,AR,Argentina,-29.00000000,-58.91667000,Q764565
940,Departamento de Mburucuyá,3638,W,Corrientes,11,AR,Argentina,-28.00000000,-58.25000000,Q921040
941,Departamento de Mercedes,3638,W,Corrientes,11,AR,Argentina,-29.00000000,-57.83333000,Q1088713
945,Departamento de Monte Caseros,3638,W,Corrientes,11,AR,Argentina,-30.25000000,-57.83333000,Q584331
957,Departamento de Paso de los Libres,3638,W,Corrientes,11,AR,Argentina,-29.66667000,-57.25000000,Q1953119
980,Departamento de Saladas,3638,W,Corrientes,11,AR,Argentina,-28.25000000,-58.75000000,Q1088710
984,Departamento de San Cosme,3638,W,Corrientes,11,AR,Argentina,-27.33333000,-58.50000000,Q374940
995,Departamento de San Luis del Palmar,3638,W,Corrientes,11,AR,Argentina,-27.50000000,-58.25000000,Q1191103
996,Departamento de San Martín,3638,W,Corrientes,11,AR,Argentina,-28.83333000,-56.91667000,Q1063365
1001,Departamento de San Miguel,3638,W,Corrientes,11,AR,Argentina,-27.91667000,-57.50000000,Q1063338
1004,Departamento de San Roque,3638,W,Corrientes,11,AR,Argentina,-28.66667000,-58.75000000,Q374562
1009,Departamento de Santo Tomé,3638,W,Corrientes,11,AR,Argentina,-28.25000000,-56.25000000,Q967023
1014,Departamento de Sauce,3638,W,Corrientes,11,AR,Argentina,-30.00000000,-58.66667000,Q630600
1068,Empedrado,3638,W,Corrientes,11,AR,Argentina,-27.95178000,-58.80584000,Q2792846
1071,Esquina,3638,W,Corrientes,11,AR,Argentina,-30.01476000,-59.52890000,Q55860
1077,Felipe Yofré,3638,W,Corrientes,11,AR,Argentina,-29.10226000,-58.33772000,Q21828202
1089,Garruchos,3638,W,Corrientes,11,AR,Argentina,-28.17208000,-55.65406000,Q5875555
1118,Gobernador Juan E. Martínez,3638,W,Corrientes,11,AR,Argentina,-28.91161000,-58.93594000,Q5881697
1121,Gobernador Virasora,3638,W,Corrientes,11,AR,Argentina,-28.05000000,-56.03333000,Q2100648
1123,Goya,3638,W,Corrientes,11,AR,Argentina,-29.13995000,-59.26343000,Q55862
1134,Herlitzka,3638,W,Corrientes,11,AR,Argentina,-27.56516000,-58.25557000,Q5894887
1163,Itá Ibaté,3638,W,Corrientes,11,AR,Argentina,-27.42573000,-57.33758000,Q5923221
1161,Itatí,3638,W,Corrientes,11,AR,Argentina,-27.27043000,-58.24458000,Q549659
1162,Ituzaingó,3638,W,Corrientes,11,AR,Argentina,-27.58162000,-56.68231000,Q1470601
1171,Juan Pujol,3638,W,Corrientes,11,AR,Argentina,-30.41873000,-57.85612000,Q2313682
1184,La Cruz,3638,W,Corrientes,11,AR,Argentina,-29.17443000,-56.64326000,Q1016042
1235,Libertad,3638,W,Corrientes,11,AR,Argentina,-30.04300000,-57.82020000,Q21826989
1237,Lomas de Vallejos,3638,W,Corrientes,11,AR,Argentina,-27.73501000,-57.91850000,Q5638031
1242,Loreto,3638,W,Corrientes,11,AR,Argentina,-27.76834000,-57.27531000,Q21827027
1271,Mariano I. Loza,3638,W,Corrientes,11,AR,Argentina,-29.37667000,-58.19436000,Q5997783
1275,Mburucuyá,3638,W,Corrientes,11,AR,Argentina,-28.04532000,-58.22835000,Q1015504
1279,Mercedes,3638,W,Corrientes,11,AR,Argentina,-29.18416000,-58.07519000,Q1783539
1284,Mocoretá,3638,W,Corrientes,11,AR,Argentina,-30.61891000,-57.96344000,Q55861
1287,Monte Caseros,3638,W,Corrientes,11,AR,Argentina,-30.25359000,-57.63626000,Q765820
1301,Nuestra Señora del Rosario de Caa Catí,3638,W,Corrientes,11,AR,Argentina,-27.75072000,-57.62073000,Q682849
1303,Nueve de Julio,3638,W,Corrientes,11,AR,Argentina,-28.84051000,-58.82650000,Q7068654
1311,Palmar Grande,3638,W,Corrientes,11,AR,Argentina,-27.94195000,-57.90057000,Q21827359
1323,Paso de la Patria,3638,W,Corrientes,11,AR,Argentina,-27.31676000,-58.57197000,Q9056608
1324,Paso de los Libres,3638,W,Corrientes,11,AR,Argentina,-29.71251000,-57.08771000,Q9056608
1325,Pedro R. Fernández,3638,W,Corrientes,11,AR,Argentina,-28.75097000,-58.65583000,Q6069905
1327,Perugorría,3638,W,Corrientes,11,AR,Argentina,-29.34132000,-58.61059000,Q6073076
1349,Pueblo Libertador,3638,W,Corrientes,11,AR,Argentina,-30.22087000,-59.38981000,Q5394748
1382,Riachuelo,3638,W,Corrientes,11,AR,Argentina,-27.58191000,-58.74497000,Q21827593
1399,Saladas,3638,W,Corrientes,11,AR,Argentina,-28.25384000,-58.62591000,Q544023
1416,San Carlos,3638,W,Corrientes,11,AR,Argentina,-27.74586000,-55.89731000,Q21827699
1419,San Cosme,3638,W,Corrientes,11,AR,Argentina,-27.37123000,-58.51214000,Q21827707
1437,San Lorenzo,3638,W,Corrientes,11,AR,Argentina,-28.13306000,-58.76733000,Q21827760
1439,San Luis del Palmar,3638,W,Corrientes,11,AR,Argentina,-27.50790000,-58.55454000,Q1016055
1443,San Miguel,3638,W,Corrientes,11,AR,Argentina,-27.99585000,-57.58964000,Q1016019
1461,Santa Lucía,3638,W,Corrientes,11,AR,Argentina,-28.98746000,-59.10287000,Q3949073
1466,Santa Rosa,3638,W,Corrientes,11,AR,Argentina,-28.26318000,-58.11891000,Q21827837
1476,Santo Tomé,3638,W,Corrientes,11,AR,Argentina,-28.54939000,-56.04077000,Q2031463
1594,Yapeyú,3638,W,Corrientes,11,AR,Argentina,-29.46914000,-56.81841000,Q55854
1595,Yataity Calle,3638,W,Corrientes,11,AR,Argentina,-29.01913000,-58.90846000,Q21825635
645,Aldea San Antonio,3654,E,Entre Ríos,11,AR,Argentina,-32.62317000,-58.70512000,Q4713475
